objectid,objectnumber,classification,culture,division,title,accessionyear,placeid,placename,lat,lon,personid,personculture,personname,personrole,uniquepageviews_2008,uniquepageviews_2009,uniquepageviews_2010,uniquepageviews_2011,uniquepageviews_2012,uniquepageviews_2013,uniquepageviews_2014,uniquepageviews_2015,uniquepageviews_2016,uniquepageviews_2017,uniquepageviews_2018,edits_2008,edits_2009,edits_2010,edits_2011,edits_2012,edits_2013,edits_2014,edits_2015,edits_2016,edits_2017,edits_2018,studycenterviews_2008,studycenterviews_2009,studycenterviews_2010,studycenterviews_2011,studycenterviews_2012,studycenterviews_2013,studycenterviews_2014,studycenterviews_2015,studycenterviews_2016,studycenterviews_2017,studycenterviews_2018,conservation_2008,conservation_2009,conservation_2010,conservation_2011,conservation_2012,conservation_2013,conservation_2014,conservation_2015,conservation_2016,conservation_2017,conservation_2018,pageviews_2008,pageviews_2009,pageviews_2010,pageviews_2011,pageviews_2012,pageviews_2013,pageviews_2014,pageviews_2015,pageviews_2016,pageviews_2017,pageviews_2018,moves_2008,moves_2009,moves_2010,moves_2011,moves_2012,moves_2013,moves_2014,moves_2015,moves_2016,moves_2017,moves_2018
348038,2013.16,Sculpture,Palestinian,Modern and Contemporary Art,Hair Necklace,2013,0,,0,0,59175,Palestinian,Mona Hatoum,Artist,,,,,,7,22,80,284,342,238,,,,,,28,0,2,0,0,1,,,,,,,,,,,8,,,,,,1,,,,,,,,,,,7,25,91,317,384,285,,,,,,4,1,0,0,1,
166668,P2001.28.1-4,Photographs,American,Modern and Contemporary Art,You Became a Scientific Profile / A Negroid Type / An Anthropological Debate / & A Photographic Subject,2001,2028213,"North America, United States",38,-98,21824,American,Carrie Mae Weems,Artist,,5,1,1,1,0,5,34,68,58,61,,1,0,0,1,0,0,3,,,,,,,,1,0,0,3,2,23,7,,,,,,,,,,,,,6,1,2,2,0,6,36,76,66,64,,2,,,,,,,,,
178502,P2000.4.7,Photographs,American,Modern and Contemporary Art,"John in Sixteen Parts (Part #7, Bottom Row #4)",2000,2028276,"North America, United States, New York State, New York City",40.7,-74,18077,American,Gary Schneider,Artist,,,,,1,0,1,,,,,,,,,1,2,1,1,,,,,,,,,,,,1,,,,,,,,1,,,,,,,,,,1,0,1,,,,,,4,0,0,0,0,11,1,7,,
178504,P2000.4.3,Photographs,American,Modern and Contemporary Art,"John in Sixteen Parts (Part #3, Bottom Row #2)",2000,2028276,"North America, United States, New York State, New York City",40.7,-74,18077,American,Gary Schneider,Artist,,,,,,,,2,,,,,,,,1,2,1,1,,,,,,,,,,,,1,,,,,,,,1,,,,,,,,,,,,,2,,,,,4,0,0,0,0,11,1,7,,
195631,P1998.68.1,Photographs,American,Modern and Contemporary Art,"Self-Portrait (Hand, three panels, horizontal, no. 2)",1998,2028213,"North America, United States",38,-98,18978,American,John Coplans,Artist,,,,1,1,0,0,4,2,2,,,,,1,2,4,1,,,,,,,,,1,0,0,0,0,1,,,,,,1,,,,,,,,,,6,2,0,0,4,2,2,,,5,1,0,5,2,9,3,0,6,
341235,2012.274,Paintings,American,Modern and Contemporary Art,Available Portrait Colors,2012,0,,0,0,34308,American,Annette Lemieux,Artist,,,,,,22,4,6,30,28,6,,,,,20,9,0,1,,,,,,,,,,,,1,,,,,,,,,,,,,,,,,,,28,4,7,33,36,7,,,,,7,1,0,0,11,5,
177800,P2000.4.1,Photographs,American,Modern and Contemporary Art,"John in Sixteen Parts (Part #1, Top Row #1)",2000,2028276,"North America, United States, New York State, New York City",40.7,-74,18077,American,Gary Schneider,Artist,,,1,3,1,0,2,2,,,,,,,1,1,2,1,1,,,,,,,,,,,,1,,,,,,,,1,,,,,,,,2,6,1,0,2,4,,,,,4,0,0,0,0,11,1,7,,
178909,P2000.4.12,Photographs,American,Modern and Contemporary Art,"John in Sixteen Parts (Part #12, Top Row #6)",2000,2028276,"North America, United States, New York State, New York City",40.7,-74,18077,American,Gary Schneider,Artist,,,,,,,,,1,,,,,,,1,2,1,1,,,,,,,,,,,,1,,,,,,,,1,,,,,,,,,,,,,,1,,,,4,0,0,0,0,11,1,7,,
178910,P2000.4.14,Photographs,American,Modern and Contemporary Art,"John in Sixteen Parts (Part #14, Bottom Row #7)",2000,2028276,"North America, United States, New York State, New York City",40.7,-74,18077,American,Gary Schneider,Artist,,,,,,,,,,,,,,,,1,2,1,1,,,,,,,,,,,,1,,,,,,,,1,,,,,,,,,,,,,,,,,,4,0,0,0,0,11,1,7,,
178911,P2000.4.13,Photographs,American,Modern and Contemporary Art,"John in Sixteen Parts (Part #13, Top Row #7)",2000,2028276,"North America, United States, New York State, New York City",40.7,-74,18077,American,Gary Schneider,Artist,,,,,,,1,1,,,,,,,,1,2,1,1,,,,,,,,,,,,1,,,,,,,,1,,,,,,,,,,,,1,1,,,,,4,0,0,0,0,11,1,7,,
178912,P2000.4.6,Photographs,American,Modern and Contemporary Art,"John in Sixteen Parts (Part #6, Bottom Row #3)",2000,2028276,"North America, United States, New York State, New York City",40.7,-74,18077,American,Gary Schneider,Artist,,,,,,,,,,,,,,,,1,2,1,1,,,,,,,,,,,,1,,,,,,,,1,,,,,,,,,,,,,,,,,,4,0,0,0,0,11,1,7,,
326448,2010.577,Photographs,American,Modern and Contemporary Art,"Grandma, JC and me",2010,2028213,"North America, United States",38,-98,53617,American,LaToya Ruby Frazier,Artist,,,,,,3,2,2,4,1,56,,,32,3,1,,,,,,,,,,,,,,,26,3,1,,,,,,,,,,,,,,,,,3,2,2,4,1,66,,4,11,5,0,0,0,0,40,14,13
178108,P2000.4.11,Photographs,American,Modern and Contemporary Art,"John in Sixteen Parts (Part #11, Bottom Row #6)",2000,2028276,"North America, United States, New York State, New York City",40.7,-74,18077,American,Gary Schneider,Artist,,,,,,,,,,,,,,,,1,2,1,1,,,,,,,,,,,,1,,,,,,,,1,,,,,,,,,,,,,,,,,,4,0,0,0,0,11,1,7,,
178109,P2000.4.16,Photographs,American,Modern and Contemporary Art,"John in Sixteen Parts (Part #16, Top Row #8)",2000,2028276,"North America, United States, New York State, New York City",40.7,-74,18077,American,Gary Schneider,Artist,,,,,,1,0,1,1,,,,,,,1,2,1,1,,,,,,,,,,,,1,,,,,,,,1,,,,,,,,,,,1,0,2,1,,,,4,0,0,0,0,11,1,7,,
178110,P2000.4.10,Photographs,American,Modern and Contemporary Art,"John in Sixteen Parts (Part #10, Bottom Row #5)",2000,2028276,"North America, United States, New York State, New York City",40.7,-74,18077,American,Gary Schneider,Artist,,,,,1,0,0,0,1,1,,,,,,1,2,1,1,,,,,,,,,,,,1,,,,,,,,1,,,,,,,,,,1,0,0,0,1,1,,,4,0,0,2,0,11,1,7,,
180044,P2000.4.4,Photographs,American,Modern and Contemporary Art,"John in Sixteen Parts (Part #4, Top Row #2)",2000,2028276,"North America, United States, New York State, New York City",40.7,-74,18077,American,Gary Schneider,Artist,,,,,,,,1,1,,,,,,,1,2,1,1,,,,,,,,,,,,1,,,,,,,,1,,,,,,,,,,,,,1,2,,,,4,0,0,0,0,11,1,7,,
355779,2016.126.2,Audiovisual Works,American,Modern and Contemporary Art,"Bingo/Ninths from ""Program Six""",2016,0,,0,0,22464,American,Gordon Matta-Clark,Artist,,,,,,,,,,2,,,,,,,,,,22,,,,,,,,,,,1,,,,,,,,,,,,,,,,,,,,,,,2,,,,,,,,,,2,0,1
195298,P1998.68.3,Photographs,American,Modern and Contemporary Art,"Self-Portrait (Hand, three panels, horizontal, no. 2)",1998,2028213,"North America, United States",38,-98,18978,American,John Coplans,Artist,,,,,1,0,0,0,0,2,,,,,1,2,3,1,,,,,,,,,,,,,,1,,,,,,1,,,,,,,,,,,1,0,0,0,0,2,,,5,1,0,3,2,9,3,0,6,
355778,2016.126.1,Audiovisual Works,American,Modern and Contemporary Art,"Splitting from ""Program Six""",2016,0,,0,0,22464,American,Gordon Matta-Clark,Artist,,,,,,,,,,2,4,,,,,,,,,22,,,,,,,,,,,1,,,,,,,,,,,,,,,,,,,,,,,2,5,,,,,,,,,2,0,1
355780,2016.126.3,Audiovisual Works,American,Modern and Contemporary Art,"Substrait [Underground Dailies] from ""Program Six""",2016,0,,0,0,22464,American,Gordon Matta-Clark,Artist,,,,,,,,,,,1,,,,,,,,,22,,,,,,,,,,,1,,,,,,,,,,,,,,,,,,,,,,,,1,,,,,,,,,2,0,1
93638,1989.58,Prints,German,Modern and Contemporary Art,German Cities Before Reconstruction,1989,0,,0,0,23316,German,Werner Büttner,Artist,,,,,1,2,1,2,9,0,9,,,,,1,0,0,0,0,0,2,,,,,1,0,0,0,0,2,,,,,,,,,,,,,,,,,1,3,1,2,16,0,15,,4,0,0,4,0,0,0,0,12,5
177801,P2000.4.9,Photographs,American,Modern and Contemporary Art,"John in Sixteen Parts (Part #9, Top Row #5)",2000,2028276,"North America, United States, New York State, New York City",40.7,-74,18077,American,Gary Schneider,Artist,,,,,,,,1,,,,,,,,1,2,1,1,,,,,,,,,,,,1,,,,,,,,1,,,,,,,,,,,,,1,,,,,4,0,0,0,0,11,1,7,,
178433,P2000.4.5,Photographs,American,Modern and Contemporary Art,"John in Sixteen Parts (Part #5, Top Row #3)",2000,2028276,"North America, United States, New York State, New York City",40.7,-74,18077,American,Gary Schneider,Artist,,,,,,,,,,,,,,,,1,2,1,1,,,,,,,,,,,,1,,,,,,,,1,,,,,,,,,,,,,,,,,,4,0,0,0,0,11,1,7,,
178503,P2000.4.8,Photographs,American,Modern and Contemporary Art,"John in Sixteen Parts (Part #8, Top Row #4)",2000,2028276,"North America, United States, New York State, New York City",40.7,-74,18077,American,Gary Schneider,Artist,,,,,,,,2,,,,,,,,1,2,1,1,,,,,,,,,,,,1,,,,,,,,1,,,,,,,,,,,,,2,,,,,4,0,0,0,0,11,1,7,,
195632,P1998.68.2,Photographs,American,Modern and Contemporary Art,"Self-Portrait (Hand, three panels, horizontal, no. 2)",1998,2028213,"North America, United States",38,-98,18978,American,John Coplans,Artist,,,,,,,,5,0,2,,,,,1,2,3,1,,,,,,,,,,,,,,1,,,,,,1,,,,,,,,,,,,,,7,0,2,,,5,1,0,3,2,9,5,0,6,
326445,2010.574,Photographs,American,Modern and Contemporary Art,Me and Mom's Boyfriend Mr. Art,2010,2028213,"North America, United States",38,-98,53617,American,LaToya Ruby Frazier,Artist,,,,1,0,9,7,3,7,2,26,,,19,3,1,0,0,0,0,0,1,,,,,,,,,,2,1,,,,,,,,,,,,,,,2,0,15,8,4,8,2,33,,4,11,5,0,0,0,0,1,6,13
331589,2009.53,Drawings,American,Modern and Contemporary Art,Stairs,2009,0,,0,0,54435,American,Mimi Smith,Artist,,7,3,2,48,102,128,135,76,67,37,,14,2,0,1,1,0,2,0,1,,,,,,,,,,,1,1,,,,,,,,,,,,,9,6,4,58,112,143,170,89,80,39,,10,0,0,0,0,0,0,2,5,7
339976,2012.118,Paintings,Chinese,Modern and Contemporary Art,Portrait,2012,0,,0,0,57491,Chinese,Zhang Xiaogang,Artist,,,,,,8,12,49,56,63,14,,,,,26,1,0,1,,,,,,,,,,,,,,2,,,,,2,,,,,,,,,,,,10,12,62,59,66,14,,,,,9,2,9,0,0,3,8
178908,P2000.4.15,Photographs,American,Modern and Contemporary Art,"John in Sixteen Parts (Part #15, Bottom Row #8)",2000,2028276,"North America, United States, New York State, New York City",40.7,-74,18077,American,Gary Schneider,Artist,,,,1,,,,,,,,,,,,1,2,1,1,,,,,,,,,,,,1,,,,,,,,1,,,,,,,,,2,,,,,,,,,4,0,0,0,0,11,1,7,,
180043,P2000.4.2,Photographs,American,Modern and Contemporary Art,"John in Sixteen Parts (Part #2, Bottom Row #1)",2000,2028276,"North America, United States, New York State, New York City",40.7,-74,18077,American,Gary Schneider,Artist,,,,,1,2,,,,,,,,,,1,2,1,1,,,,,,,,,,,,1,,,,,,,,1,,,,,,,,,,1,2,,,,,,,4,0,0,2,0,11,1,7,,
222008,1988.417.5,Photographs,German,Modern and Contemporary Art,"Duisburg Hochfeld, from the portfolio ""Foto/Realismen: ars viva 87/88""",1988,0,,0,0,28882,German,Thomas Struth,Artist,,4,7,10,3,2,4,4,0,12,3,,,,,1,1,0,1,1,2,,,,,1,0,0,0,0,0,2,,,,,,,,,,,,,,4,12,24,4,2,4,4,0,15,4,,2,4,2,0,0,0,0,0,24,4
222039,1988.417.2,Photographs,German,Modern and Contemporary Art,"Museum A. Koenig, Bonn, from the portfolio ""Foto/Realismen: ars viva 87/88""",1988,0,,0,0,26047,German,Candida Höfer,Artist,,5,2,3,2,6,4,5,2,18,,,,,,1,1,0,1,0,2,,,,,1,0,0,0,0,0,2,,,,,,,,,,,,,,5,3,6,3,8,4,8,2,21,,,,1,0,0,0,0,0,0,24,4
5179,2006.21.6,Photographs,German,Modern and Contemporary Art,Théâtre municipal Calais II,2006,2028277,"Europe, France",46,2,26047,German,Candida Höfer,Artist,,3,6,4,12,6,4,7,3,3,11,,,,,1,0,0,0,0,0,2,,,,,,,,,,1,2,,,,,,,,,,,,,4,11,10,27,7,4,7,3,4,11,,4,1,0,0,0,0,0,0,5,16
326446,2010.575,Photographs,American,Modern and Contemporary Art,Mom and Her Boyfriend Mr. Art,2010,2028213,"North America, United States",38,-98,53617,American,LaToya Ruby Frazier,Artist,,,,1,1,30,16,2,6,18,27,,,16,3,1,,,,,,,,,,,1,0,0,0,0,2,1,,,,,,,,,,,,,,,2,2,45,18,2,6,19,31,,4,11,5,4,0,0,0,1,6,13
330070,2008.226,Photographs,German,Modern and Contemporary Art,Pierpont Morgan Library New York IV,2008,0,,0,0,26047,German,Candida Höfer,Artist,,6,6,5,38,76,87,176,73,54,34,,,,,3,0,2,2,,,,,,,,,,,2,0,0,1,,,,,,,,,,,,,8,11,10,43,79,91,199,84,61,38,,9,0,0,0,0,6,5,1,3,3
348587,2013.29,Photographs,Nigerian,Modern and Contemporary Art,Atiai,2013,2035270,"Africa, Nigeria",10,8,59303,African,J.D. 'Okhai Ojeikere,Artist,,,,,,1,6,18,24,3,3,,,,,,37,,,,,,,,,,,,,,,1,,,,,,,1,,,,,,,,,,,1,8,22,27,6,3,,,,,,16,10,1,3,4,
349223,P2000.4.1-16,Photographs,American,Modern and Contemporary Art,John in Sixteen Parts,2000,2028444,"North America, United States, New York, New York City",40.7,-74,18077,American,Gary Schneider,Artist,,,,,,,6,15,9,7,5,,,,,,18,1,1,,,,,,,,,,,,,,,,,,,,1,,,,,,,,,,,,6,19,9,8,5,,,,,,2,1,2,,,
355987,2016.132,Photographs,American,Modern and Contemporary Art,#2810,2016,0,,0,0,62830,American,Todd Hido,Artist,,,,,,,,,,13,11,,,,,,,,,30,1,3,,,,,,,,,3,4,1,,,,,,,,,,,,,,,,,,,,,15,17,,,,,,,,,22,16,4
220259,1997.82,Sculpture,American,Modern and Contemporary Art,Pee Body,1997,2028213,"North America, United States",38,-98,28756,American,Kiki Smith,Artist,,12,22,20,19,31,89,524,774,563,434,,1,1,1,1,1,4,24,0,4,,,,,,,,,,1,,,,,,1,,,,,,,,,12,45,46,32,38,103,607,892,644,500,,,,,,,4,1,2,,
178556,35.2,Photographs,Austrian,Modern and Contemporary Art,Untitled,,0,,0,0,28210,Austrian,Arnulf Rainer,Artist,,6,7,4,2,1,0,4,0,0,1,,,,,1,2,0,1,0,0,1,,,,,2,0,0,0,0,1,1,,,,,,,,,,,,,6,12,8,4,1,0,4,0,0,1,,8,1,0,3,0,6,0,0,3,8
197518,1998.117,Sculpture,American,Modern and Contemporary Art,Swept One,1998,0,,0,0,33266,American,Richard Tuttle,Artist,,3,5,7,2,4,2,6,4,3,1,,1,0,0,2,2,1,2,,,,,,,,,,,1,1,,,,,,,,,,,,,,,4,7,14,2,9,2,7,4,3,1,,5,0,1,8,0,0,10,2,2,
218184,1996.36,Multiples,German,Modern and Contemporary Art,Cosmos und Damian 3-D,1996,0,,0,0,27839,German,Joseph Beuys,Artist,,,,2,4,5,10,2,0,5,,,5,0,0,4,2,2,,,,,,,,,,,,,,2,,,,,,,,,,,,,,,,4,8,5,10,2,0,6,,,4,0,0,0,7,4,0,2,9,
218384,1996.9.A,Drawings,German,Modern and Contemporary Art,"19 Pages.  Drawings for April 27, 1972",1996,0,,0,0,18434,German,Hanne Darboven,Artist,,1,3,4,3,2,2,7,7,2,0,,5,0,0,1,1,0,2,2,1,,,,,1,3,0,0,1,,,,,,,,1,,,,,,,,1,6,10,5,2,3,10,9,2,0,,5,0,22,7,0,1,9,5,1,1
218405,1995.608,Prints,German,Modern and Contemporary Art,On the Flight to America,1995,0,,0,0,27839,German,Joseph Beuys,Artist,,,,,,,1,,,,,,2,0,0,2,0,0,2,,,,,,,,,,,,,1,,,,,,,,,,,,,,,,,,,2,,,,,,5,3,3,0,9,2,0,7,11,13
218437,1996.9.D,Drawings,German,Modern and Contemporary Art,"19 Pages.  Drawings for April 27, 1972",1996,0,,0,0,18434,German,Hanne Darboven,Artist,,,,,,,,,1,,,,5,0,0,1,1,0,2,2,1,,,,,,3,0,0,1,,,,,,,,1,,,,,,,,,,,,,,,1,,,,5,0,0,7,0,1,9,5,1,1
218445,1996.9.M,Drawings,German,Modern and Contemporary Art,"19 Pages.  Drawings for April 27, 1972",1996,0,,0,0,18434,German,Hanne Darboven,Artist,,,,,,,,2,,,,,5,0,0,1,1,0,2,2,1,,,,,,3,0,0,1,,,,,,,,1,,,,,,,,,,,,,,2,,,,,5,0,0,7,0,1,10,5,1,1
219013,1995.613,Prints,German,Modern and Contemporary Art,On the Flight to America,1995,0,,0,0,27839,German,Joseph Beuys,Artist,,,,,,,,,,,,,2,0,0,2,0,0,2,,,,,,,,,,,,,1,,,,,,,,,,,,,,,,,,,,,,,,,5,3,0,0,9,2,0,4,11,13
219058,1995.286.A-D,Multiples,German,Modern and Contemporary Art,Sun Disc,1995,0,,0,0,27839,German,Joseph Beuys,Artist,,,,2,8,12,14,7,7,1,1,,,,,5,1,2,3,,,,,,,,1,,,,,,,,,,,,1,,,,,,,,,4,8,12,17,8,8,1,1,,6,0,0,2,14,12,2,,,
221055,1992.379,Prints,German,Modern and Contemporary Art,"Coal Mine, Westfalen, Hamm, Ruhr District, from the portfolio ""Walls and Conduits""",1992,0,,0,0,27813,German,Bernd and Hilla Becher,Artist,,,,1,1,4,2,5,2,,,,,,,1,1,0,2,,,,,,,,,,,,,,,,,,,,1,,,,,,,,,2,1,4,2,5,2,,,,1,0,0,0,3,9,4,,,
221075,1992.374,Prints,German,Modern and Contemporary Art,"Coal Mine, Ewald, Recklinghausen, Ruhr District, from the portfolio ""Walls and Conduits""",1992,0,,0,0,27813,German,Bernd and Hilla Becher,Artist,,,1,2,1,5,0,4,,,,,,,,1,1,0,2,,,,,,,,,,,,,,,,,,,,1,,,,,,,,2,4,1,7,0,5,,,,,1,0,0,0,3,9,4,,,
221076,1992.381,Prints,German,Modern and Contemporary Art,"Coal Mine, Waltrop, Waltrop, Ruhr District, from the portfolio ""Walls and Conduits""",1992,0,,0,0,27813,German,Bernd and Hilla Becher,Artist,,,,1,0,4,4,2,1,0,1,,,,,1,1,0,2,,,,,,,,,,,,,,,,,,,,1,,,,,,,,,2,0,5,4,2,1,0,1,,1,0,0,0,3,9,4,,,
4905,1995.721.2,Prints,German,Modern and Contemporary Art,Waste of Energy,1995,0,,0,0,27839,German,Joseph Beuys,Artist,,,,,,1,2,,,,,,1,0,0,2,6,9,2,,,,,,,,3,0,0,0,0,1,1,,,,,,,,,,,,,,,,,1,2,,,,,,5,3,0,5,9,2,0,3,11,12
253965,M22720.B,Prints,American,Modern and Contemporary Art,Phenakistiscope,1995,0,,0,0,35027,American,Hollis Frampton,Artist,,,2,1,6,4,1,4,0,0,0,,,,1,1,2,0,0,0,0,2,,,,,,,,,,,1,,,,,,,,,,,,,,3,2,8,4,1,4,0,0,0,,4,0,0,18,11,3,0,0,0,11
284609,P1982.108,Photographs,American,Modern and Contemporary Art,Untitled,,2028450,"North America, United States, California",37,-119,34795,American,Henry Wessel Jr.,Artist,,1,1,0,4,1,0,1,1,0,1,,2,0,0,1,1,,,,,,,,,,,,,,,,2,,,,,,,,,,,,,1,1,0,5,1,0,1,1,0,1,,4,3,0,0,0,10,0,0,0,7
299980,1985.23,Paintings,German,Modern and Contemporary Art,Spiral White,1985,0,,0,0,29128,German,Günther Uecker,Artist,,42,40,26,24,42,115,128,61,56,60,,,,,1,1,0,1,,,,,,,1,0,0,0,0,1,1,,,,,2,,,,,,,,,50,71,54,40,45,146,142,64,59,74,,6,0,0,2,0,0,0,0,5,
330084,4.2009,Prints,American,Modern and Contemporary Art,Sunrise and Sunset at Praiano,,0,,0,0,27176,American,Sol LeWitt,Artist,,5,2,4,4,1,3,6,2,4,8,,8,0,0,1,1,,,,,,,,,1,1,0,0,0,0,1,,,,,,,,,,,,,,5,4,8,6,1,3,6,2,4,9,,5,1,4,8,10,3,0,0,9,2
336815,2010.449.22,Prints,American,Modern and Contemporary Art,Canto XXII,2010,0,,0,0,28223,American,Robert Rauschenberg,Artist,,,1,0,0,1,0,8,9,7,2,,,3,0,1,3,,,,,,,,,,,,,1,0,0,1,,,,,1,,,,,,,,,2,0,0,1,0,8,10,7,2,,,3,0,0,0,0,2,0,0,6
337319,2011.8.1,Photographs,American,Modern and Contemporary Art,Go Further with Fiction,2011,2029807,"North America, United States, Rhode Island, Providence",41.816,-71.4,18652,American,Dennis Oppenheim,Artist,,,,1,2,6,0,0,5,3,1,,,,13,1,5,1,,,,,,,,1,0,0,0,1,,,,,,,,,,,,,,,,,,2,3,8,0,0,5,3,1,,,,10,0,0,6,6,5,,
339903,2012.4,Photographs,American,Modern and Contemporary Art,Leesburg Stockade,2012,0,,0,0,34129,American,Danny Lyon,Artist,,,,,,2,1,2,4,10,,,,,,22,,,,,,,,,,,,,,,,2,,,,,,,,,,,,,,,,,,2,1,2,4,12,,,,,,11,2,7,4,0,14,
348394,2013.27.1-15,Prints,German,Modern and Contemporary Art,Higher Beings Command,2013,0,,0,0,28108,German,Sigmar Polke,Artist,,,,,,3,4,1,32,61,44,,,,,,35,1,1,,,,,,,,,,,1,,,,,,,,,,,,,,,,,,,,3,4,1,35,77,58,,,,,,9,7,4,4,,
28501,M26410,Multiples,American,Modern and Contemporary Art,Flux Divorce Box with Flux Divorce Album (cut version),2005,0,,0,0,19174,American,Geoffrey Hendricks,Artist,,2,0,0,12,22,17,20,27,31,49,,,,1,3,4,0,1,0,0,1,,,,,2,0,0,2,0,2,1,,,,,,,,,,1,,,2,0,0,15,26,19,22,28,35,53,,6,0,0,8,9,0,10,6,7,3
28842,M26412,Multiples,American,Modern and Contemporary Art,Jewelry Fluxkit,2005,0,,0,0,25858,American,Alice Hutchins,Artist,,1,0,0,1,8,3,3,0,0,1,,,,1,4,3,0,1,0,0,1,,,,,2,0,0,0,0,0,2,,,,,,,,,1,,,,1,0,0,1,10,3,3,0,0,1,,4,0,0,9,5,1,0,3,0,11
29152,M26465,Multiples,American,Modern and Contemporary Art,Fluxtest: Determine the Values,2005,0,,0,0,17454,American,Jock Reynolds,Artist,,,,,3,13,0,1,,,,,,,1,3,3,0,1,0,0,1,,,,,,,,,,,1,,,,,,,,,1,,,,,,,3,13,0,2,,,,,4,0,0,6,8,0,0,2,0,10
51983,M26247.B,Prints,American,Modern and Contemporary Art,Flux Stationery: Hand in Glove (envelope),2004,0,,0,0,33967,American,George Maciunas,Artist,,1,0,0,7,4,6,5,7,4,4,,,,1,3,3,,,,,,,,,,1,0,0,0,0,2,,,,,,,,,,,,,,1,0,0,8,5,6,6,7,4,4,,3,0,0,3,9,5,0,0,8,
94652,1995.263.A-D,Multiples,German,Modern and Contemporary Art,Silver Broom and Broom without Bristles,1995,0,,0,0,27839,German,Joseph Beuys,Artist,,,,2,2,7,6,5,7,26,32,,,,,5,1,1,2,,,,,,,,3,0,0,0,0,1,1,,,,,,,,,,,,,,,4,2,7,6,5,8,27,40,,4,0,0,3,,,,,,
51985,M26247.A,Prints,American,Modern and Contemporary Art,Flux Stationery: Hand in Glove (paper),2004,0,,0,0,33967,American,George Maciunas,Artist,,1,0,1,1,4,0,4,2,2,2,,,,1,3,3,,,,,,,,,,,,,,,2,,,,,,,,,,,,,,1,0,2,1,4,0,4,2,2,2,,3,0,0,3,9,5,0,0,10,
52106,M26248.A,Prints,American,Modern and Contemporary Art,Flux Stationery: Torso in Fur Coat (paper),2004,0,,0,0,33967,American,George Maciunas,Artist,,,,,,1,1,0,3,2,1,,,,1,3,3,,,,,,,,,,,,,,,2,,,,,,,,,,,,,,,,,,2,1,0,3,2,1,,3,0,0,3,9,5,0,0,9,
52861,2005.1,Sculpture,German,Modern and Contemporary Art,"First Workset, Number 34:  Arm Piece",2005,0,,0,0,29293,German,Franz Erhard Walther,Artist,,,,,4,0,1,,,,,,,,,1,2,0,2,,,,,,,,,,,,,,2,,,,,,,,,,,,,,,,10,0,1,,,,,,,,1,4,0,1,0,0,0,11
69783,M25973,Audiovisual Works,American,Modern and Contemporary Art,Record,2004,0,,0,0,27791,American,Bruce Nauman,Artist,,,1,3,4,1,1,4,12,4,1,,,,1,3,2,0,2,0,0,1,,,,1,2,0,0,0,0,1,,,,,,,,,,1,,,,,2,6,6,1,1,4,14,4,1,,4,0,5,10,2,0,2,3,10,3
185469,2009.6,Prints,American,Modern and Contemporary Art,Royal Road Test,2009,0,,0,0,28417,American,Edward Ruscha,Artist,,11,1,1,11,8,6,6,3,,,,33,0,0,3,1,0,2,,,,,,,1,3,0,0,0,0,1,,,,,,,,,,,,,,15,2,2,13,10,10,6,3,,,,10,0,4,17,3,10,4,0,4,
191270,M24204,Prints,American,Modern and Contemporary Art,Edward Ruscha (Ed-Werd Rew-Shay) Young Artist,1999,0,,0,0,28417,American,Edward Ruscha,Artist,,,,,1,12,7,21,15,14,18,,,,1,4,3,0,0,0,0,1,,,,,1,0,0,0,0,1,,,,,,,,,,,,,,,,,1,13,7,21,17,15,19,,3,0,0,10,6,9,4,0,3,
218443,1996.9.K,Drawings,German,Modern and Contemporary Art,"19 Pages.  Drawings for April 27, 1972",1996,0,,0,0,18434,German,Hanne Darboven,Artist,,,1,,,,,,,,,,5,0,0,1,1,0,2,2,1,,,,,,3,0,0,1,,,,,,,,1,,,,,,,,,1,,,,,,,,,,5,0,0,7,0,1,9,5,1,1
218451,1996.9.S,Drawings,German,Modern and Contemporary Art,"19 Pages.  Drawings for April 27, 1972",1996,0,,0,0,18434,German,Hanne Darboven,Artist,,,,,1,,,,,,,,5,0,0,1,1,0,2,2,1,,,,,,3,0,0,1,,,,,,,,1,,,,,,,,,,,1,,,,,,,,5,0,0,7,0,1,9,5,1,1
218452,1996.9.E,Drawings,German,Modern and Contemporary Art,"19 Pages.  Drawings for April 27, 1972",1996,0,,0,0,18434,German,Hanne Darboven,Artist,,,,,,,,,,,,,5,0,0,1,1,0,2,2,1,,,,,,3,0,0,1,,,,,,,,1,,,,,,,,,,,,,,,,,,,5,0,0,7,0,1,9,5,1,1
218597,1995.621,Prints,German,Modern and Contemporary Art,On the Flight to America,1995,0,,0,0,27839,German,Joseph Beuys,Artist,,,,1,,,,,,,,,2,0,0,2,0,0,2,,,,,,,,,,,,,1,,,,,,,,,,,,,,,,2,,,,,,,,,5,3,0,0,9,2,0,4,11,15
218749,1995.611,Prints,German,Modern and Contemporary Art,On the Flight to America,1995,0,,0,0,27839,German,Joseph Beuys,Artist,,,,,1,,,,,,,,2,0,0,2,0,0,2,,,,,,,,,,,,,1,,,,,,,,,,,,,,,,,1,,,,,,,,5,3,0,0,9,2,0,4,11,13
218880,1995.29,Multiples,German,Modern and Contemporary Art,A Political Party for Animals!,1995,0,,0,0,27839,German,Joseph Beuys,Artist,,,,1,1,1,3,1,1,4,,,,,,4,3,1,2,,,,,,,,5,0,0,0,0,2,,,,,,,,,,,,,,,,6,2,2,3,1,1,4,,,8,0,0,9,6,10,0,0,8,
219024,1995.607,Prints,German,Modern and Contemporary Art,On the Flight to America,1995,0,,0,0,27839,German,Joseph Beuys,Artist,,,,,,,,,,1,,,2,0,0,2,0,0,2,,,,,,,1,0,0,0,0,0,1,,,,,,,,,,,,,,,,,,,,,,1,,,5,3,3,0,9,2,0,3,11,13
219026,1995.61,Prints,German,Modern and Contemporary Art,On the Flight to America,1995,0,,0,0,27839,German,Joseph Beuys,Artist,,,,,,1,,,,,,,2,0,0,2,0,0,2,,,,,,,,,,,,,1,,,,,,,,,,,,,,,,,,1,,,,,,,5,3,0,0,9,2,0,4,11,13
219031,1995.62,Prints,German,Modern and Contemporary Art,On the Flight to America,1995,0,,0,0,27839,German,Joseph Beuys,Artist,,,,,,,,,,,,,2,0,0,2,0,0,2,,,,,,,,,,,,,1,,,,,,,,,,,,,,,,,,,,,,,,,5,3,0,0,9,2,0,4,11,13
219032,1995.634,Prints,German,Modern and Contemporary Art,Cosmos and Damian,1995,0,,0,0,27839,German,Joseph Beuys,Artist,,,,,,,,1,0,1,,,2,0,0,2,1,0,2,,,,,,,,,,,,,1,,,,,,,,,,,,,,,,,,,,1,0,1,,,5,3,0,3,9,2,0,3,11,13
221045,1992.384,Prints,German,Modern and Contemporary Art,"Coal Mine, Ewald, Recklinghausen, Ruhr District, from the portfolio ""Walls and Conduits""",1992,0,,0,0,27813,German,Bernd and Hilla Becher,Artist,,,,1,0,4,1,2,,,,,,,,1,1,0,2,,,,,,,,,,,,,,,,,,,,1,,,,,,,,,2,0,4,1,2,,,,,1,0,0,0,3,9,4,,,
221063,1992.378,Prints,German,Modern and Contemporary Art,"Coal Mine, Winterslag, Winterslag, Belgium, from the portfolio ""Walls and Conduits""",1992,0,,0,0,27813,German,Bernd and Hilla Becher,Artist,,,,1,1,4,0,2,1,,,,,,,1,1,0,2,,,,,,,,,,,,,,,,,,,,1,,,,,,,,,2,1,4,0,2,1,,,,1,0,0,0,3,9,4,,,
236246,56.1993,Prints,American,Modern and Contemporary Art,Burning Small Fires,,2028213,"North America, United States",38,-98,27791,American,Bruce Nauman,Artist,,2,3,8,9,7,14,8,10,8,5,,,,2,3,1,0,0,1,,,,,,3,4,0,0,0,0,1,,,,,,1,,,,,,,,2,6,20,11,10,18,12,10,8,5,,4,3,21,12,9,1,0,0,12,2
260989,M22394,Prints,American,Modern and Contemporary Art,Untitled,1993,0,,0,0,29318,American,Andy Warhol,Artist,,,1,3,3,5,3,5,,,,,,,1,10,3,0,1,0,0,1,,,,,3,0,0,0,1,1,,,,,,1,,,,,,,,,4,6,3,5,4,7,,,,,9,0,0,10,0,8,2,0,3,
336314,2010.447,Drawings,Brazilian,Modern and Contemporary Art,Untitled,2010,0,,0,0,21471,Brazilian,Mira Schendel,Artist,,,18,26,15,10,30,15,11,2,4,,,27,0,2,1,0,3,,,,,,,,,,,1,1,1,3,,,,,1,,,,,,,,,40,62,22,11,31,16,13,2,4,,,13,0,8,2,13,6,5,4,13
336807,2010.449.14,Prints,American,Modern and Contemporary Art,Canto XIV,2010,0,,0,0,28223,American,Robert Rauschenberg,Artist,,,,,,,2,12,0,8,4,,,3,0,1,3,,,,,,,,,,,,,1,0,0,1,,,,,1,,,,,,,,,,,,,2,12,0,8,5,,,1,0,0,0,0,2,0,5,
336809,2010.449.16,Prints,American,Modern and Contemporary Art,Canto XVI,2010,0,,0,0,28223,American,Robert Rauschenberg,Artist,,,,,,,,10,1,5,1,,,3,0,1,3,,,,,,,,,,,,,1,0,0,1,,,,,1,,,,,,,,,,,,,,10,1,5,1,,,1,0,0,0,0,2,0,5,
336823,2010.449.30,Prints,American,Modern and Contemporary Art,Canto XXX,2010,0,,0,0,28223,American,Robert Rauschenberg,Artist,,,,,2,5,1,10,11,8,6,,,3,0,1,3,,,,,,,,,,,,,1,0,0,1,,,,,1,,,,,,,,,,,2,6,1,10,14,8,6,,,1,0,0,0,0,2,0,5,
336827,2010.449.34,Prints,American,Modern and Contemporary Art,Canto XXXIV,2010,0,,0,0,28223,American,Robert Rauschenberg,Artist,,,,,1,1,0,10,1,6,13,,,3,0,1,3,,,,,,,,,,,,,1,0,1,,,,,,1,,,,,,,,,,,1,1,0,10,1,6,14,,,1,0,0,0,0,2,0,4,2
337320,2011.8.2,Photographs,American,Modern and Contemporary Art,Anthrax,2011,2028450,"North America, United States, California",37,-119,18652,American,Dennis Oppenheim,Artist,,,,1,2,9,2,8,23,4,6,,,,11,1,1,,,,,,,,,1,0,0,0,1,,,,,,,,,,,,,,,,,,2,4,12,2,9,26,6,7,,,,4,5,0,4,9,3,,
337323,2011.8.5,Photographs,American,Modern and Contemporary Art,Mind Twist,2011,2028275,"North America, United States, New York State",43,-75,18652,American,Dennis Oppenheim,Artist,,,,2,1,1,3,5,10,2,2,,,,11,1,1,,,,,,,,,1,0,0,0,1,,,,,,,,,,,,,,,,,,4,2,1,3,5,12,2,2,,,,4,0,0,6,6,6,,
337326,2011.8.8,Photographs,American,Modern and Contemporary Art,Trench Fever,2011,2036279,"North America, United States, New Jersey, Newark",40.733,-74.166,18652,American,Dennis Oppenheim,Artist,,,,1,2,2,4,15,4,5,2,,,,11,1,5,,,,,,,,,1,0,0,0,1,,,,,,,,,,,,,,,,,,2,3,7,5,20,7,5,2,,,,4,0,0,6,6,5,,
339874,2012.26,Photographs,American,Modern and Contemporary Art,Many in the movement believe an organized effort is underway to depopulate black areas of the South,2012,0,,0,0,34129,American,Danny Lyon,Artist,,,,,,,,,,1,,,,,,21,2,1,,,,,,,,,,,,,,2,,,,,,,,,,,,,,,,,,,,,,1,,,,,,11,2,7,4,0,15,
339883,2012.3,Photographs,American,Modern and Contemporary Art,Sheriff Jim Clark arrests two demonstrators who displayed placards on the steps of the federal building in Selma,2012,0,,0,0,34129,American,Danny Lyon,Artist,,,,,1,0,3,1,1,7,3,,,,,21,2,1,,,,,,,,,,,,,,3,2,,,,,,,,,,,,,,,,1,0,3,1,1,10,5,,,,,11,2,7,4,0,17,4
339885,2012.32,Photographs,American,Modern and Contemporary Art,Entrance to the City Café,2012,0,,0,0,34129,American,Danny Lyon,Artist,,,,,,,,,,0,,,,,,21,0,1,,,,,,,,,,,,,,2,1,,,,,,,,,,,,,,,,,,,,,0,,,,,,11,2,7,4,0,14,
339892,2012.34,Photographs,American,Modern and Contemporary Art,"Atlanta, police car window",2012,0,,0,0,34129,American,Danny Lyon,Artist,,,,,1,1,0,1,3,,,,,,,22,,,,,,,,,,,,,,,,3,,,,,,,,,,,,,,,,,1,1,0,1,4,,,,,,,18,2,7,4,0,17,
340155,2012.149,Sculpture,Uruguayan,Modern and Contemporary Art,Hop Hop!,2012,0,,0,0,21451,Argentinian,Carmelo Arden Quin,Artist,,,,,,2,3,4,3,5,3,,,,,35,1,0,2,,,,,,,,,,,,,3,,,,,,,,,,,,,,,,,,2,6,5,3,6,3,,,,,12,0,2,0,0,16,
350530,2014.131,Audiovisual Works,German,Modern and Contemporary Art,Monotony is Nice,2014,0,,0,0,24666,German,Charlotte Posenenske,Artist,,,,,,,,12,32,25,11,,,,,,,31,1,,,,,,,,,,,,,,,,,,,,,,,,,,,,,,,,,14,35,29,13,,,,,,,5,2,,,
97372,2003.2,Paintings,German,Modern and Contemporary Art,L'Or et le noir,2003,0,,0,0,28069,German,Otto Piene,Artist,,2,6,4,7,3,5,6,2,1,5,,,,,1,1,0,2,3,,,,,,,,,,1,4,1,,,,,,2,,,,,,,,3,14,8,15,3,5,6,3,1,6,,7,0,0,7,0,0,2,17,7,2
100655,49.2002,Photographs,American,Modern and Contemporary Art,Splitting,,2028213,"North America, United States",38,-98,22464,American,Gordon Matta-Clark,Artist,,7,10,4,2,4,1,1,2,3,,,1,0,0,2,1,,,,,,,,,,3,0,0,0,0,1,2,,,,,1,,,,,,,,7,15,8,6,4,1,1,2,3,,,3,0,0,22,9,0,0,0,10,8
176855,2000.299,Drawings,American,Modern and Contemporary Art,Untitled,2000,0,,0,0,29124,American,Cy Twombly,Artist,,3,1,1,1,4,1,1,1,,,,2,0,2,1,2,0,2,,,,,,,1,0,0,0,0,0,1,1,,,,,,,,,,,,,3,2,2,2,5,1,1,1,,,,5,1,6,0,0,5,0,0,4,8
218439,1996.9.I,Drawings,German,Modern and Contemporary Art,"19 Pages.  Drawings for April 27, 1972",1996,0,,0,0,18434,German,Hanne Darboven,Artist,,,,,,,,,2,1,,,5,0,0,1,1,0,2,2,1,,,,,,3,0,0,1,,,,,,,,1,,,,,,,,,,,,,,,2,1,,,5,0,0,7,0,1,9,5,1,1
218550,1996.9.F,Drawings,German,Modern and Contemporary Art,"19 Pages.  Drawings for April 27, 1972",1996,0,,0,0,18434,German,Hanne Darboven,Artist,,,,,,,,,,,,,5,0,0,1,1,0,2,2,1,,,,,,3,0,0,1,,,,,,,,1,,,,,,,,,,,,,,,,,,,5,0,0,7,0,1,9,5,1,1
218680,1995.633,Prints,German,Modern and Contemporary Art,Cosmos and Damian,1995,0,,0,0,27839,German,Joseph Beuys,Artist,,,,,1,2,3,3,0,1,,,2,0,0,2,3,1,2,,,,,,,,2,0,0,0,0,1,,,,,,,,,,,,,,,,,1,2,3,3,0,1,,,5,3,0,7,9,2,0,3,11,13
218751,1995.615,Prints,German,Modern and Contemporary Art,On the Flight to America,1995,0,,0,0,27839,German,Joseph Beuys,Artist,,,,,,,,,,,,,2,0,0,2,0,0,2,,,,,,,,,,,,,1,,,,,,,,,,,,,,,,,,,,,,,,,5,3,0,0,9,2,0,4,11,14
218752,1995.635,Prints,German,Modern and Contemporary Art,Cosmos and Damian,1995,0,,0,0,27839,German,Joseph Beuys,Artist,,,,,,6,0,2,1,2,,,2,0,0,2,1,0,2,,,,,,,,,,,,,1,,,,,,,,,,,,,,,,,,8,0,2,1,2,,,5,3,0,0,9,2,0,4,11,13
218753,1995.636,Prints,German,Modern and Contemporary Art,Cosmos and Damian,1995,0,,0,0,27839,German,Joseph Beuys,Artist,,,,1,0,1,0,0,0,1,,,2,0,0,2,1,0,2,,,,,,,,,,,,,1,,,,,,,,,,,,,,,,2,0,1,0,0,0,1,,,5,3,0,0,9,2,0,4,11,13
219040,1995.234,Multiples,German,Modern and Contemporary Art,Vacuum <–> Mass,1995,0,,0,0,27839,German,Joseph Beuys,Artist,,,,1,3,0,5,0,0,5,2,,1,0,0,6,1,1,2,0,1,,,,,,2,0,0,0,0,1,1,,,,,,,,,,,,,,,2,4,0,5,0,0,5,3,,5,0,0,3,3,0,1,2,9,8
220879,1992.246,Drawings,German,Modern and Contemporary Art,Immaterial Molding,1992,0,,0,0,29293,German,Franz Erhard Walther,Artist,,,1,0,1,1,1,1,1,1,6,,,,,1,3,0,2,0,0,1,,,,,,,,,,,1,,,,,,,,,,,,,,1,0,1,1,1,1,1,1,7,,4,0,0,9,2,8,0,0,0,9
221044,1992.382,Prints,German,Modern and Contemporary Art,"Coal Mine, Hugo, Gelsenkirchen, Ruhr District, from the portfolio ""Walls and Conduits""",1992,0,,0,0,27813,German,Bernd and Hilla Becher,Artist,,,,1,0,1,6,3,,,,,,,,1,1,0,2,,,,,,,,,,,,,,,,,,,,1,,,,,,,,,2,0,1,8,3,,,,,1,0,0,0,3,9,4,,,
221056,1992.38,Prints,German,Modern and Contemporary Art,"Coal Mine, Beringen, Beringen, Belgium, from the portfolio ""Walls and Conduits""",1992,0,,0,0,27813,German,Bernd and Hilla Becher,Artist,,,,1,0,4,0,6,,,,,,,,1,1,0,2,,,,,,,,,,,,,,,,,,,,1,,,,,,,,,2,0,4,0,7,,,,,1,0,0,0,3,9,4,,,
253962,M22713.B,Prints,American,Modern and Contemporary Art,Tortured Color,1995,0,,0,0,18275,American,Arman (Armand Pierre Fernandez),Artist,,2,4,4,2,4,1,4,0,6,2,,,,1,2,2,0,0,0,0,2,,,,,,,,,,,1,,,,,,,,,,,,,2,8,8,3,5,1,4,0,7,2,,4,0,0,17,11,3,0,0,0,12
260946,M22399,Prints,American,Modern and Contemporary Art,Untitled,1993,0,,0,0,29318,American,Andy Warhol,Artist,,1,2,0,5,7,0,5,,,,,,,1,10,3,0,0,0,0,1,,,,,1,0,0,0,1,1,1,,,,,1,,,,,,,,1,4,0,5,7,0,8,,,,,10,0,0,2,0,4,3,0,3,2
336801,2010.449.8,Prints,American,Modern and Contemporary Art,Canto VIII,2010,0,,0,0,28223,American,Robert Rauschenberg,Artist,,,,,,,,9,3,0,1,,,3,0,1,3,,,,,,,,,,,,,1,0,0,1,,,,,1,,,,,,,,,,,,,,9,3,0,1,,,1,0,0,0,0,2,0,0,6
336818,2010.449.25,Prints,American,Modern and Contemporary Art,Canto XXV,2010,0,,0,0,28223,American,Robert Rauschenberg,Artist,,,,,1,0,0,7,1,2,1,,,3,0,1,3,,,,,,,,,,,,,1,,,,,,,,1,,,,,,,,,,,1,0,0,7,2,3,1,,,3,0,0,0,0,2,0,4,2
337325,2011.8.7,Photographs,American,Modern and Contemporary Art,Radicality,2011,2028275,"North America, United States, New York State",43,-75,18652,American,Dennis Oppenheim,Artist,,,,1,3,6,3,16,19,8,3,,,,11,1,1,,,,,,,,,1,0,0,0,1,,,,,,,,,,,,,,,,,,2,6,7,4,19,22,12,3,,,,4,0,0,6,8,3,,
339565,2011.497,Sculpture,Uruguayan,Modern and Contemporary Art,Lignes Noires,2011,0,,0,0,21451,Argentinian,Carmelo Arden Quin,Artist,,,,,2,5,12,18,5,6,5,,,,16,5,3,0,1,,,,,,,,,,,,1,1,,,,,,,1,,,,,,,,,,3,8,13,20,5,7,5,,,,7,7,6,10,2,4,4,
339865,2012.22,Photographs,American,Modern and Contemporary Art,"Demonstrations at an “all-white” swimming pool in Cairo, Illinois",2012,0,,0,0,34129,American,Danny Lyon,Artist,,,,,,,1,1,0,0,2,,,,,21,0,1,,,,,,,,,,,,,,2,,,,,,,,,,,,,,,,,,,1,1,0,0,2,,,,,12,2,7,4,0,15,
339866,2013.108,Photographs,American,Modern and Contemporary Art,"Demonstrations at an “all-white” swimming pool in Cairo, Illinois",2013,0,,0,0,34129,American,Danny Lyon,Artist,,,,,,,,,,0,2,,,,,9,12,8,,,,,,,,,,,,,,2,,,,,,,,,,,,,,,,,,,,,,0,3,,,,,5,2,17,0,0,15,
339905,2012.42,Photographs,American,Modern and Contemporary Art,Crowds wait along the funeral route,2012,0,,0,0,34129,American,Danny Lyon,Artist,,,,,,,,,,1,,,,,,22,,,,,,,,,,,2,0,0,0,0,2,,,,,,,,,,,,,,,,,,,,,,1,,,,,,15,2,7,4,0,14,
357300,2016.387,Paintings,German,Modern and Contemporary Art,50 U Heinrich-Heine-Str.,2016,2028668,"Europe, Germany, Berlin",52.533,13.416,18816,German,Corinne Wasmuht,Artist,,,,,,,,,,7,123,,,,,,,,,11,13,1,,,,,,,,,,1,,,,,,,,,,,,,,,,,,,,,,8,143,,,,,,,,,3,0,1
357383,2017.57,Sculpture,British,Modern and Contemporary Art,Untitled (Grey),2017,0,,0,0,57534,British,Rachel Whiteread,Artist,,,,,,,,,,12,21,,,,,,,,,,25,,,,,,,,,,,2,,,,,,,,,,,,,,,,,,,,,,12,25,,,,,,,,,,3,2
191538,M24189,Prints,American,Modern and Contemporary Art,Records,1999,0,,0,0,28417,American,Edward Ruscha,Artist,,1,0,1,0,3,0,12,,,,,,,2,3,3,0,0,0,0,1,,,,,2,,,,,,,,,,,,,,,,,,,1,0,2,0,3,0,12,,,,,3,0,0,16,6,9,4,,,
51977,M26246.B,Prints,American,Modern and Contemporary Art,Flux Stationery: Foot in Shoe (envelope),2004,0,,0,0,33967,American,George Maciunas,Artist,,2,2,1,4,3,4,2,2,1,2,,,,1,3,3,,,,,,,,,,1,0,0,0,0,2,,,,,,,,,,,,,,2,6,2,5,3,4,2,2,1,2,,3,0,0,3,9,5,0,0,9,
218436,1996.9.C,Drawings,German,Modern and Contemporary Art,"19 Pages.  Drawings for April 27, 1972",1996,0,,0,0,18434,German,Hanne Darboven,Artist,,,,,1,0,1,,,,,,5,0,0,1,1,0,2,2,1,,,,,,3,0,0,1,,,,,,,,1,,,,,,,,,,,2,0,1,,,,,,5,0,0,7,0,1,9,5,1,1
218438,1996.9.H,Drawings,German,Modern and Contemporary Art,"19 Pages.  Drawings for April 27, 1972",1996,0,,0,0,18434,German,Hanne Darboven,Artist,,,,,,,,,,,,,5,0,0,1,1,0,2,2,1,,,,,,3,0,0,1,,,,,,,,1,,,,,,,,,,,,,,,,,,,5,0,0,7,0,1,9,5,1,1
218441,1996.9.B,Drawings,German,Modern and Contemporary Art,"19 Pages.  Drawings for April 27, 1972",1996,0,,0,0,18434,German,Hanne Darboven,Artist,,,,,1,0,0,0,1,1,,,5,0,0,1,1,0,2,2,1,,,,,,3,0,0,1,,,,,,,,1,,,,,,,,,,,1,0,0,0,1,1,,,5,0,0,7,0,1,9,5,1,1
218442,1996.9.J,Drawings,German,Modern and Contemporary Art,"19 Pages.  Drawings for April 27, 1972",1996,0,,0,0,18434,German,Hanne Darboven,Artist,,,1,1,,,,,,,,,5,0,0,1,1,0,2,2,1,,,,,,3,0,0,1,,,,,,,,1,,,,,,,,,2,2,,,,,,,,,5,0,0,7,0,1,10,5,1,1
218444,1996.9.L,Drawings,German,Modern and Contemporary Art,"19 Pages.  Drawings for April 27, 1972",1996,0,,0,0,18434,German,Hanne Darboven,Artist,,,,,,,,,,3,,,5,0,0,1,1,0,2,2,1,,,,,,3,0,0,1,,,,,,,,1,,,,,,,,,,,,,,,,3,,,5,0,0,7,0,1,9,5,1,1
218446,1996.9.N,Drawings,German,Modern and Contemporary Art,"19 Pages.  Drawings for April 27, 1972",1996,0,,0,0,18434,German,Hanne Darboven,Artist,,,,,,,,1,,,,,5,0,0,1,1,0,2,2,1,,,,,,3,0,0,1,,,,,,,,1,,,,,,,,,,,,,,1,,,,,5,0,0,7,0,1,9,5,1,1
218448,1996.9.P,Drawings,German,Modern and Contemporary Art,"19 Pages.  Drawings for April 27, 1972",1996,0,,0,0,18434,German,Hanne Darboven,Artist,,,,,,1,,,,,,,5,0,0,1,1,0,2,2,1,,,,,,3,0,0,1,,,,,,,,1,,,,,,,,,,,,1,,,,,,,5,0,0,7,0,1,9,5,1,1
218449,1996.9.Q,Drawings,German,Modern and Contemporary Art,"19 Pages.  Drawings for April 27, 1972",1996,0,,0,0,18434,German,Hanne Darboven,Artist,,,,,,,,,1,,,,5,0,0,1,1,0,2,2,1,,,,,,3,0,0,1,,,,,,,,1,,,,,,,,,,,,,,,1,,,,5,0,0,7,0,1,9,5,1,1
218450,1996.9.R,Drawings,German,Modern and Contemporary Art,"19 Pages.  Drawings for April 27, 1972",1996,0,,0,0,18434,German,Hanne Darboven,Artist,,,,,,,,,,,,,5,0,0,1,1,0,2,2,1,,,,,,3,0,0,1,,,,,,,,1,,,,,,,,,,,,,,,,,,,5,0,0,7,0,1,9,5,1,1
218747,1995.475.A-B,Multiples,German,Modern and Contemporary Art,"""Sonne statt Reagan""",1995,0,,0,0,27839,German,Joseph Beuys,Artist,,1,0,0,1,3,4,1,3,0,3,,,,,4,1,0,2,,,,,,,,3,0,0,0,0,0,1,,,,,,,,,,,,,1,0,0,1,3,4,1,4,0,3,,7,0,3,5,5,0,0,0,0,10
219028,1995.616,Prints,German,Modern and Contemporary Art,On the Flight to America,1995,0,,0,0,27839,German,Joseph Beuys,Artist,,,,,,,,,,,,,2,0,0,2,0,0,2,,,,,,,,,,,,,1,,,,,,,,,,,,,,,,,,,,,,,,,5,3,0,0,9,2,0,4,11,13
219030,1995.618,Prints,German,Modern and Contemporary Art,On the Flight to America,1995,0,,0,0,27839,German,Joseph Beuys,Artist,,,,,1,0,0,0,0,1,,,2,0,0,2,0,0,2,,,,,,,,,,,,,1,,,,,,,,,,,,,,,,,1,0,0,0,0,1,,,5,3,0,0,9,2,0,4,11,13
221043,1992.376,Prints,German,Modern and Contemporary Art,"Coal Mine, Friederich der Grosse, Herne, Ruhr District, from the portfolio ""Walls and Conduits""",1992,0,,0,0,27813,German,Bernd and Hilla Becher,Artist,,,2,1,2,5,1,2,1,0,1,,,,,1,1,0,2,,,,,,,,,,,,,,,,,,,,1,,,,,,,,4,4,3,6,1,2,1,0,1,,1,0,0,0,3,9,4,,,
221057,1992.383,Prints,German,Modern and Contemporary Art,"Steel plant, Neuves Maisons, Neuves Maisons, France, from the portfolio ""Walls and Conduits""",1992,0,,0,0,27813,German,Bernd and Hilla Becher,Artist,,,1,2,2,3,1,4,,,,,,,,1,1,0,2,,,,,,,,,,,,,,,,,,,,1,,,,,,,,2,4,2,4,1,4,,,,,1,0,0,0,3,9,4,,,
260943,M22392,Prints,American,Modern and Contemporary Art,Untitled,1993,0,,0,0,29318,American,Andy Warhol,Artist,,,8,3,8,4,1,6,,,,,,,1,10,3,0,1,0,0,1,,,,,1,0,0,0,1,2,,,,,,1,,,,,,,,,17,6,10,4,2,9,,,,,10,3,0,2,0,6,2,0,5,
284596,P1982.106,Photographs,American,Modern and Contemporary Art,Untitled,,2028213,"North America, United States",38,-98,34789,American,Catherine Wagner,Artist,,,,1,1,0,1,1,0,0,1,,2,0,0,1,1,,,,,,,,,,,,,,,,2,,,,,,,,,,,,,,,2,2,0,1,1,0,0,1,,3,0,0,0,0,7,0,0,0,7
284608,P1982.107,Photographs,American,Modern and Contemporary Art,Untitled,,2028213,"North America, United States",38,-98,34793,American,Jack Welpott,Artist,,,,,1,0,0,2,,,,,2,0,0,1,1,,,,,,,,,,,,,,,,2,,,,,,,,,,,,,,,,2,0,0,2,,,,,3,0,0,0,0,7,0,0,0,7
285033,P1982.97,Photographs,American,Modern and Contemporary Art,Untitled,,2028213,"North America, United States",38,-98,34613,Australian,Graham Howe,Artist,,,,1,2,0,0,1,,,,,2,0,0,1,1,,,,,,,,,,,,,,,,2,,,,,,,,,,,,,,,2,3,0,0,1,,,,,3,0,0,0,0,10,0,0,0,7
329958,2008.207,Paintings,German,Modern and Contemporary Art,Saxon Motif,2008,0,,0,0,26757,German,Georg Baselitz,Artist,,8,7,4,22,21,24,54,30,43,57,,,,,2,1,0,2,,,,,,,1,1,,,,,,,,,,2,,,,,,,,,10,12,10,34,21,30,69,32,49,62,,6,0,0,7,0,8,,,,
336808,2010.449.15,Prints,American,Modern and Contemporary Art,Canto XV,2010,0,,0,0,28223,American,Robert Rauschenberg,Artist,,,,,2,1,3,9,1,4,,,,3,0,1,3,,,,,,,,,,,,,1,1,0,1,,,,,1,,,,,,,,,,,3,1,3,9,1,4,,,,1,0,0,0,0,2,0,5,
336810,2010.449.17,Prints,American,Modern and Contemporary Art,Canto XVII,2010,0,,0,0,28223,American,Robert Rauschenberg,Artist,,,,,,,,9,1,3,,,,3,0,1,3,,,,,,,,,,,,,1,0,0,1,,,,,1,,,,,,,,,,,,,,9,1,3,,,,1,0,0,0,0,2,0,0,6
336814,2010.449.21,Prints,American,Modern and Contemporary Art,Canto XXI,2010,0,,0,0,28223,American,Robert Rauschenberg,Artist,,,,,,1,1,12,3,4,2,,,3,0,1,3,,,,,,,,,,,,,1,,,,,,,,1,,,,,,,,,,,,1,1,12,3,4,3,,,1,0,0,0,0,2,0,4,2
337321,2011.8.3,Photographs,American,Modern and Contemporary Art,Pretty Ideas,2011,2037149,"North America, United States, New York, Long Island",0,0,18652,American,Dennis Oppenheim,Artist,,,,1,5,5,1,11,14,1,,,,,11,1,5,1,,,,,,,,1,0,0,0,1,,,,,,,,,,,,,,,,,,2,10,5,1,17,18,1,,,,,9,0,17,6,8,3,,
337324,2011.8.6,Photographs,American,Modern and Contemporary Art,Avoid the Issues,2011,2028275,"North America, United States, New York State",43,-75,18652,American,Dennis Oppenheim,Artist,,,,1,0,6,1,8,10,1,1,,,,11,1,1,,,,,,,,,1,0,0,0,1,,,,,,,,,,,,,,,,,,2,0,6,1,14,14,1,1,,,,4,0,0,6,8,3,,
340156,2012.15,Sculpture,Uruguayan,Modern and Contemporary Art,Boites,2012,0,,0,0,21451,Argentinian,Carmelo Arden Quin,Artist,,,,,,2,8,23,20,12,9,,,,,30,2,1,2,,,,,,,,,,,,,1,,,,,,,1,,,,,,,,,,,2,8,29,21,12,10,,,,,13,9,9,0,2,4,
351898,1979.433,Prints,American,Modern and Contemporary Art,"Titled (Art as Idea as Idea), [Society]",1979,0,,0,0,35019,American,Joseph Kosuth,Artist,,,,,,,3,39,46,73,55,,,,,,,3,5,0,0,2,,,,,,,,,,,,,,,,,,,,,,,,,,,,,4,47,51,92,68,,,,,,,3,1,,,
352322,2015.9,Paintings,Austrian,Modern and Contemporary Art,Wings or String,2015,0,,0,0,28210,Austrian,Arnulf Rainer,Artist,,,,,,,,5,2,0,9,,,,,,,,29,0,0,3,,,,,,,,1,1,0,1,,,,,,,,,,,,,,,,,,,7,2,0,10,,,,,,,,12,4,0,6
28843,M26406,Multiples,American,Modern and Contemporary Art,Flux Clippings,2005,0,,0,0,18770,American,Ken Friedman,Artist,,1,0,0,4,9,3,3,2,0,1,,,,1,4,3,0,1,0,0,1,,,,,2,0,0,0,0,1,2,,,,,,,,,,1,,,1,0,0,6,10,3,3,2,0,1,,4,0,0,9,5,1,0,2,3,11
29946,M26499,Multiples,American,Modern and Contemporary Art,Fluxtattoos,2005,0,,0,0,33967,American,George Maciunas,Artist,,,,,1,6,0,1,0,1,3,,,,1,4,3,0,1,0,0,1,,,,,3,0,0,0,0,0,2,,,,,,,,,1,,,,,,,1,6,0,1,0,1,4,,8,0,0,11,5,1,0,3,0,11
51984,M26246.A,Prints,American,Modern and Contemporary Art,Flux Stationery: Foot in Shoe (paper),2004,0,,0,0,33967,American,George Maciunas,Artist,,2,1,1,4,1,3,5,1,4,6,,,,1,3,3,,,,,,,,,,,,,,,2,,,,,,,,,,,,,,2,2,2,4,2,3,5,1,4,6,,3,0,0,3,9,5,0,0,9,
52041,M26248.B,Prints,American,Modern and Contemporary Art,Flux Stationery: Torso in Fur Coat,2004,0,,0,0,33967,American,George Maciunas,Artist,,,,,,5,2,1,1,1,1,,,,1,3,3,,,,,,,,,,,,,,,2,,,,,,,,,,,,,,,,,,5,2,1,1,1,1,,3,0,0,3,9,5,0,0,9,
185777,2009.61,Prints,American,Modern and Contemporary Art,Some Los Angeles Apartments,2009,0,,0,0,28417,American,Edward Ruscha,Artist,,2,0,1,2,3,0,1,1,,,,25,3,0,3,2,0,2,,,,,,,,3,0,0,0,0,0,1,,,,,,,,,,,,,2,0,2,3,3,0,1,1,,,,10,0,0,18,6,8,4,0,0,3
187760,1992.374.-385,Prints,German,Modern and Contemporary Art,Walls and Conduits,1992,0,,0,0,27813,German,Bernd and Hilla Becher,Artist,,,1,1,0,5,2,22,8,3,10,,,,,1,1,0,2,,,,,,,,,,,1,,,,,,,,,1,,,,,,,,2,2,0,6,2,23,9,3,15,,5,2,0,3,2,,,,,
218092,72.1997,Prints,American,Modern and Contemporary Art,Grotesque Face Mask,,0,,0,0,33967,American,George Maciunas,Artist,,,,3,5,18,9,5,19,8,19,,,,,3,2,,,,,,,,,,2,0,0,1,,,,,,,,,,,,,,,,,,6,6,20,9,6,29,9,22,,3,0,0,9,9,5,4,0,0,6
218447,1996.9.O,Drawings,German,Modern and Contemporary Art,"19 Pages.  Drawings for April 27, 1972",1996,0,,0,0,18434,German,Hanne Darboven,Artist,,,,,,,,,,,,,5,0,0,1,1,0,2,2,1,,,,,,3,0,0,1,,,,,,,,1,,,,,,,,,,,,,,,,,,,5,0,0,7,0,1,9,5,1,1
218551,1996.9.G,Drawings,German,Modern and Contemporary Art,"19 Pages.  Drawings for April 27, 1972",1996,0,,0,0,18434,German,Hanne Darboven,Artist,,,,,1,0,1,,,,,,5,0,0,1,1,0,2,2,1,,,,,,3,0,0,1,,,,,,,,1,,,,,,,,,,,2,0,1,,,,,,5,0,0,7,0,1,9,5,2,1
218598,1995.622,Prints,German,Modern and Contemporary Art,On the Flight to America,1995,0,,0,0,27839,German,Joseph Beuys,Artist,,,,,,,2,0,1,,,,2,0,0,2,0,0,2,,,,,,,,,,,,,1,,,,,,,,,,,,,,,,,,,2,0,1,,,,5,3,0,0,9,2,0,4,11,15
218599,1995.623,Prints,German,Modern and Contemporary Art,On the Flight to America,1995,0,,0,0,27839,German,Joseph Beuys,Artist,,,1,,,,,,,,,,2,0,0,2,0,0,2,,,,,,,,,,,,,1,,,,,,,,,,,,,,,4,,,,,,,,,,5,3,0,0,9,2,0,4,11,13
218750,1995.614,Prints,German,Modern and Contemporary Art,On the Flight to America,1995,0,,0,0,27839,German,Joseph Beuys,Artist,,,,,,,,,,1,,,2,0,0,2,0,0,2,,,,,,,,,,,,,1,,,,,,,,,,,,,,,,,,,,,,1,,,5,3,0,0,9,2,0,4,11,13
218984,1995.334,Multiples,German,Modern and Contemporary Art,Magnetic Postcard,1995,0,,0,0,27839,German,Joseph Beuys,Artist,,,,,,1,3,1,3,,,,,,,5,1,4,2,,,,,,,,,,,1,,,,,,,,,,,,,,,,,,,,1,4,1,3,,,,6,0,0,0,3,0,6,6,0,1
219014,1995.619,Prints,German,Modern and Contemporary Art,On the Flight to America,1995,0,,0,0,27839,German,Joseph Beuys,Artist,,,,,1,,,,,,,,2,0,0,2,0,0,2,,,,,,,,,,,,,1,,,,,,,,,,,,,,,,,2,,,,,,,,5,3,0,0,9,2,0,4,11,14
219025,1995.609,Prints,German,Modern and Contemporary Art,On the Flight to America,1995,0,,0,0,27839,German,Joseph Beuys,Artist,,,,,1,0,0,0,0,1,,,2,0,0,2,0,0,2,,,,,,,,,,,,,1,,,,,,,,,,,,,,,,,1,0,0,0,0,1,,,5,3,0,0,9,2,0,4,11,13
219027,1995.612,Prints,German,Modern and Contemporary Art,On the Flight to America,1995,0,,0,0,27839,German,Joseph Beuys,Artist,,,,,,,,,,2,,,2,0,0,2,0,0,2,,,,,,,,,,,,,1,,,,,,,,,,,,,,,,,,,,,,3,,,5,3,0,0,9,2,0,4,11,13
219029,1995.617,Prints,German,Modern and Contemporary Art,On the Flight to America,1995,0,,0,0,27839,German,Joseph Beuys,Artist,,,,,,,,,,1,,,2,0,0,2,0,0,2,,,,,,,,,,,,,1,,,,,,,,,,,,,,,,,,,,,,1,,,5,3,0,0,9,2,0,4,11,15
219164,1995.316,Multiples,German,Modern and Contemporary Art,Green Violin,1995,0,,0,0,27839,German,Joseph Beuys,Artist,,2,0,1,12,4,13,16,11,2,0,,,,,5,1,1,2,,,,,,,,2,0,0,1,,,,,,,,,,1,,,,,,3,0,2,15,4,13,16,11,2,0,,6,0,1,5,4,0,11,2,,
219227,1995.247,Multiples,German,Modern and Contemporary Art,How the Dictatorship of the Parties Can Be Overcome,1995,0,,0,0,27839,German,Joseph Beuys,Artist,,,,1,8,12,11,8,3,3,2,,,,,4,2,2,2,,,,,,,,2,0,0,0,0,0,1,,,,,,,,,,,,,,,2,13,15,12,8,4,3,2,,5,0,0,6,3,0,0,0,0,13
219228,1995.248,Multiples,German,Modern and Contemporary Art,How the Dictatorship of the Parties Can Be Overcome,1995,0,,0,0,27839,German,Joseph Beuys,Artist,,,1,2,3,3,7,3,6,3,,,,,,4,0,2,2,,,,,,,,,,,,,,1,,,,,,,,,,,,,,4,4,4,3,7,5,6,3,,,5,0,0,1,4,0,0,0,0,13
221054,1992.375,Prints,German,Modern and Contemporary Art,"Coal Mine, Friederich der Grosse, Herne, Ruhr District, from the portfolio ""Walls and Conduits""",1992,0,,0,0,27813,German,Bernd and Hilla Becher,Artist,,,2,1,0,2,0,2,,,,,,,,1,1,0,2,,,,,,,,,,,,,,,,,,,,1,,,,,,,,4,2,0,2,0,2,,,,,1,0,0,0,3,9,4,,,
221062,1992.377,Prints,German,Modern and Contemporary Art,"Coal Mine, Emil Emscher, Essen Ruhr District, from the portfolio ""Walls and Conduits""",1992,0,,0,0,27813,German,Bernd and Hilla Becher,Artist,,,1,1,2,4,0,1,,,,,,,,1,1,0,2,,,,,,,,,,,,,,,,,,,,1,,,,,,,,2,4,3,4,0,1,,,,,1,0,0,0,3,9,4,,,
221064,1992.385,Prints,German,Modern and Contemporary Art,"Coal Mine, Diergardt, Rheinhausen, Ruhr District, from the portfolio ""Walls and Conduits""",1992,0,,0,0,27813,German,Bernd and Hilla Becher,Artist,,,,1,1,3,0,4,4,2,1,,,,,1,1,0,2,,,,,,,,,,,,,,,,,,,,1,,,,,,,,,2,1,4,0,5,5,2,1,,1,0,0,0,3,9,4,,,
260944,M22395,Prints,American,Modern and Contemporary Art,Untitled,1993,0,,0,0,29318,American,Andy Warhol,Artist,,,1,1,1,0,0,1,3,,,,,,1,10,2,0,1,0,0,1,,,,,2,0,0,1,0,3,1,,,,,,,,,,,,,,2,2,1,0,0,1,3,,,,10,0,0,4,0,4,3,2,7,2
337322,2011.8.4,Photographs,American,Modern and Contemporary Art,Narrow Mind,2011,2036279,"North America, United States, New Jersey, Newark",40.733,-74.166,18652,American,Dennis Oppenheim,Artist,,,,2,3,20,2,2,18,8,4,,,,11,1,5,,,,,,,,,1,0,0,0,1,,,,,,,,,,,,,,,,,,4,6,25,2,2,21,10,4,,,,4,0,0,6,6,5,,
339894,2012.36,Photographs,American,Modern and Contemporary Art,Stokely Carmichael and the Maryland National Guard,2012,0,,0,0,34129,American,Danny Lyon,Artist,,,,,,1,1,1,1,4,3,,,,,21,0,1,,,,,,,,,,,,,,2,1,,,,,,,,,,,,,,,,,1,1,1,1,4,5,,,,,11,2,7,4,0,14,
53875,1991.16.1,Photographs,German,Modern and Contemporary Art,"Skriptur, from the book ""Lightgraphics, Monoscriptures""",1991,0,,0,0,32118,German,Karl-Heinz Chargesheimer,Artist,,,,,1,8,8,6,7,2,,,,,,1,1,0,4,,,,,,,,3,0,0,1,1,,,,,,,,1,,,,,,,,,,3,9,9,8,7,2,,,6,0,0,8,4,6,8,10,,
255487,M22546,Prints,American,Modern and Contemporary Art,Untitled (blue),1994,0,,0,0,26859,American,Ellsworth Kelly,Artist,,,,,,2,1,3,1,0,1,,,,1,1,3,0,0,0,0,1,,,,4,1,0,0,0,1,0,1,,,,,,1,,,,,,,,,,,2,1,4,1,0,1,,5,2,2,4,4,7,4,3,0,2
283795,P1981.109,Photographs,American,Modern and Contemporary Art,"Sand Bars, Colorado River",1981,2028213,"North America, United States",38,-98,34590,American,William A. Garnett,Artist,,,,,1,,,,,,,,,,,1,1,0,0,0,0,1,,,,,,,,1,0,1,,,,,,,,,,,,,,,,,2,,,,,,,,4,0,0,0,1,6,4,0,5,4
221235,1992.24,Photographs,German,Modern and Contemporary Art,Oil Drops,1992,0,,0,0,26850,German,Peter Keetman,Artist,,,1,1,4,13,5,2,4,3,3,,,,,1,1,0,1,4,,,,,,,3,0,0,1,3,2,,,,,,,,,,,,,,,2,2,6,16,8,2,4,3,3,,5,0,3,8,2,7,3,17,10,4
255550,M22547,Prints,American,Modern and Contemporary Art,Untitled (black),1994,0,,0,0,26859,American,Ellsworth Kelly,Artist,,1,0,0,1,1,0,3,2,0,1,,,,1,1,3,0,0,0,0,1,,,,4,1,0,0,1,1,0,1,,,,,,1,,,,,,,1,0,0,1,2,0,3,2,0,1,,5,2,2,4,4,7,7,3,0,2
356277,2017.11,Photographs,American,Modern and Contemporary Art,"Leaves, Meschers",2017,0,,0,0,26859,American,Ellsworth Kelly,Artist,,,,,,,,,,2,1,,,,,,,,,12,19,,,,,,,,,,1,4,1,,,,,,,,,,,,,,,,,,,,,2,1,,,,,,,,,4,34,4
53369,1991.16.4,Photographs,German,Modern and Contemporary Art,"Babel, from the book ""Lightgraphics, Monoscriptures""",1991,0,,0,0,32118,German,Karl-Heinz Chargesheimer,Artist,,,,,2,3,4,4,4,2,,,,,,1,1,0,4,,,,,,,,3,0,0,1,,,,,,,,,1,,,,,,,,,,3,3,4,4,6,3,,,6,0,0,8,4,6,8,5,,
53876,1991.16.9,Photographs,German,Modern and Contemporary Art,"Signalement, from the book ""Lightgraphics, Monoscriptures""",1991,0,,0,0,32118,German,Karl-Heinz Chargesheimer,Artist,,,,,1,2,8,2,4,1,1,,,,,1,1,0,4,,,,,,,,3,0,0,1,,,,,,,,,1,,,,,,,,,,1,2,10,2,4,1,1,,6,0,0,8,4,6,8,6,3,
53941,1991.16.2,Photographs,German,Modern and Contemporary Art,"Figurativ, from the book ""Lightgraphics, Monoscriptures""",1991,0,,0,0,32118,German,Karl-Heinz Chargesheimer,Artist,,,,,1,5,14,7,15,8,,,,,,1,1,0,5,,,,,,,,3,0,0,1,,,,,,,,,1,,,,,,,,,,1,5,14,7,18,9,,,6,0,0,8,4,6,8,5,,
184597,2000.98,Drawings,American,Modern and Contemporary Art,"Concert for Piano and Orchestra, Solo for Piano",2000,0,,0,0,31467,American,John Cage,Artist,,2,2,7,5,15,12,17,33,26,23,,,2,0,1,3,0,2,,,,,,,1,4,0,0,1,5,1,3,,,,,,,,,,,,,2,4,20,7,18,14,20,45,32,26,,4,3,7,13,4,7,4,18,3,9
29166,M26460,Performance Artifacts,American,Modern and Contemporary Art,Morning Piece (1964) to George Maciunas,2005,0,,0,0,35054,American,Yoko Ono,Artist,,7,6,3,12,10,11,21,9,2,2,,,,1,4,3,0,1,0,0,1,,,,3,3,0,0,2,0,0,2,,,,,,,,,,,,,7,9,6,17,12,13,22,9,4,2,,8,0,0,16,7,1,11,2,0,6
339120,2011.103,Photographs,German,Modern and Contemporary Art,"Pepsi Cola Interior, XVI: September 21-October 2, 2001",2011,2037149,"North America, United States, New York, Long Island",0,0,26557,German,Vera Lutter,Artist,,,,3,29,1,3,1,1,0,10,,,,6,1,1,,,,,,,,,,,,,,,,,,,,,,,,,,,,,,,6,76,4,3,1,1,0,10,,,,2,0,0,0,0,0,0,1
356207,2016.134,Photographs,American,Modern and Contemporary Art,"Interstate 95 Newark, NJ  5/18/63",2016,2036279,"North America, United States, New Jersey, Newark",40.733,-74.166,34519,American,Richard Avedon,Artist,,,,,,,,,,,3,,,,,,,,,22,1,1,,,,,,,,,5,6,1,,,,,,,,,,,,,,,,,,,,,,3,,,,,,,,,24,18,15
356210,2016.137,Photographs,American,Modern and Contemporary Art,"Interstate 95 Newark, NJ  5/18/63",2016,2036279,"North America, United States, New Jersey, Newark",40.733,-74.166,34519,American,Richard Avedon,Artist,,,,,,,,,,,2,,,,,,,,,22,1,1,,,,,,,,,5,6,1,,,,,,,,,,,,,,,,,,,,,,3,,,,,,,,,24,18,15
53877,1991.16.8,Photographs,German,Modern and Contemporary Art,"Voodou, from the book ""Lightgraphics, Monoscriptures""",1991,0,,0,0,32118,German,Karl-Heinz Chargesheimer,Artist,,,,,2,3,8,4,7,1,,,,,,1,1,0,4,,,,,,,,3,0,0,1,,,,,,,,,1,,,,,,,,,,2,4,9,5,7,1,,,6,0,0,8,4,6,8,6,3,
53940,1991.16.5,Photographs,German,Modern and Contemporary Art,"Oliostrukt, from the book ""Lightgraphics, Monoscriptures""",1991,0,,0,0,32118,German,Karl-Heinz Chargesheimer,Artist,,,,,1,4,10,9,7,1,,,,,,1,1,0,3,,,,,,,,3,0,0,1,,,,,,,,,1,,,,,,,,,,1,4,10,9,8,1,,,6,0,0,8,4,6,8,5,,
71403,P2003.227,Photographs,German,Modern and Contemporary Art,"Untitled (photomontage of Isabella Stewart Gardner Museum, Boston)",2004,2028265,"North America, United States, Massachusetts, Boston",42.35,-71.5,34619,German,Lotte Jacobi,Artist,,,,2,0,0,0,7,3,1,1,,,,,1,1,,,,,,,,,,,,,,,1,1,,,,,,,,,,,,,,,8,0,0,0,9,3,1,1,,4,0,0,0,2,6,3,0,19,10
71406,P2003.237,Photographs,German,Modern and Contemporary Art,Untitled (abstraction),2004,0,,0,0,34619,German,Lotte Jacobi,Artist,,,,,1,2,2,2,1,1,18,,,,,1,1,,,,,,,,,,,,,2,2,2,,,,,,,,,,,,,,,,,1,2,2,2,1,1,19,,4,0,0,0,1,6,7,10,11,4
154955,2.2002.853,Photographs,American,Modern and Contemporary Art,Three Vistas Through One Wall,2011,2028213,"North America, United States",38,-98,22189,American,Clarence J. Laughlin,Artist,,,,1,1,0,0,1,4,0,3,,,,3,1,,,,,,,,,,,,,,,1,2,,,,,,,,,,,,,,,,2,2,0,0,1,4,0,3,,3,0,0,0,0,0,0,2,6,10
281035,P1981.14.5,Photographs,American,Modern and Contemporary Art,Growing Up I,1981,2028213,"North America, United States",38,-98,34752,American,Henry Holmes Smith,Artist,,,,,,3,1,0,0,0,,,,,,1,0,0,0,0,0,1,,,,,,,,,,2,,,,,,,,,,,,,,,,,,3,1,0,0,0,,,3,0,0,0,0,0,0,0,6,10
53878,1991.16.3,Photographs,German,Modern and Contemporary Art,"Kosmogen, from the book ""Lightgraphics, Monoscriptures""",1991,0,,0,0,32118,German,Karl-Heinz Chargesheimer,Artist,,,,,1,2,10,5,7,2,1,,,,,1,1,0,4,,,,,,,,3,0,0,1,1,,,,,,,,1,,,,,,,,,,1,3,11,5,7,2,1,,6,0,0,8,4,6,8,10,,
53939,1991.16.6,Photographs,German,Modern and Contemporary Art,"Szenarium, from the book ""Lightgraphics, Monoscriptures""",1991,0,,0,0,32118,German,Karl-Heinz Chargesheimer,Artist,,,,,1,2,2,4,7,5,,,,,,1,1,0,3,,,,,,,,3,0,0,1,,,,,,,,,1,,,,,,,,,,1,2,2,5,8,5,,,6,0,0,8,4,6,12,6,3,
221518,1992.5,Photographs,German,Modern and Contemporary Art,Reflecting Panes,1992,0,,0,0,28544,German,Toni Schneiders,Artist,,,,,1,0,1,0,1,4,7,,,,,1,1,0,4,0,1,,,,,,3,0,0,1,2,1,,,,,,,,,,,,,,,,,1,0,1,0,1,4,7,,4,0,0,8,2,7,2,11,9,4
226791,1993.214,Sculpture,American,Modern and Contemporary Art,Curve X,1993,2028213,"North America, United States",38,-98,26859,American,Ellsworth Kelly,Artist,,3,10,13,18,16,15,49,53,11,22,,1,0,1,2,1,1,3,,,,,,,2,1,,,,,,,,,,1,,,,,,,,,3,16,26,39,16,18,61,60,11,26,,3,0,2,1,0,5,,,,
255549,M22544,Prints,American,Modern and Contemporary Art,Untitled (red),1994,0,,0,0,26859,American,Ellsworth Kelly,Artist,,1,1,0,1,2,1,7,2,3,1,,,,1,1,3,0,0,0,0,1,,,,4,1,0,0,0,1,0,1,,,,,,1,,,,,,,1,2,0,2,2,1,7,2,3,1,,5,2,2,4,4,7,4,3,0,2
284190,P1978.68,Photographs,American,Modern and Contemporary Art,Chicago 11,1978,2029827,"North America, United States, Illinois, Chicago",41.85,-87.65,28734,American,Aaron Siskind,Artist,,,,,1,0,1,2,1,,,,,,,1,1,0,1,0,0,1,,,,,5,,,,,,,,,,,1,,,,,,,,,,,1,0,2,2,1,,,,3,0,0,13,6,10,5,,,
218659,1995.576,Prints,German,Modern and Contemporary Art,Democracy is Merry,1995,0,,0,0,27839,German,Joseph Beuys,Artist,,1,0,0,0,3,3,4,1,0,1,,2,0,0,2,2,1,2,,,,,,,,2,0,0,0,0,1,,,,,,,,,,,,,,2,0,0,0,3,4,4,1,0,1,,5,3,0,4,10,2,0,3,11,8
356211,2016.138,Photographs,American,Modern and Contemporary Art,"Interstate 95 Newark, NJ  5/18/63",2016,2036279,"North America, United States, New Jersey, Newark",40.733,-74.166,34519,American,Richard Avedon,Artist,,,,,,,,,,,2,,,,,,,,,22,1,1,,,,,,,,,5,6,1,,,,,,,,,,,,,,,,,,,,,,2,,,,,,,,,24,18,16
356280,2017.14,Photographs,American,Modern and Contemporary Art,"Beach Cabana, Meschers",2017,0,,0,0,26859,American,Ellsworth Kelly,Artist,,,,,,,,,,1,1,,,,,,,,,7,17,,,,,,,,,,1,2,,,,,,,,,,,,,,,,,,,,,,1,2,,,,,,,,,3,26,
53368,1991.16.7,Photographs,German,Modern and Contemporary Art,"Rapporte, from the book ""Lightgraphics, Monoscriptures""",1991,0,,0,0,32118,German,Karl-Heinz Chargesheimer,Artist,,,,,1,4,2,7,6,2,,,,,,1,1,0,4,,,,,,,,3,0,0,1,,,,,,,,,1,,,,,,,,,,1,4,2,10,6,2,,,6,0,0,8,4,6,8,6,3,
53906,1991.16.10,Photographs,German,Modern and Contemporary Art,"Monstra, from the book ""Lightgraphics, Monoscriptures""",1991,0,,0,0,32118,German,Karl-Heinz Chargesheimer,Artist,,,,,1,4,4,5,7,1,,,,,,1,1,0,4,,,,,,,,3,0,0,1,,,,,,,,,1,,,,,,,,,,1,4,4,6,7,1,,,6,0,0,8,4,6,8,6,3,
71452,P2003.226,Photographs,German,Modern and Contemporary Art,Untitled (abstraction),2004,0,,0,0,34619,German,Lotte Jacobi,Artist,,,,,,1,2,1,2,3,1,,,,,1,1,,,,,,,,,,,,,1,0,1,,,,,,,,,,,,,,,,,,1,2,1,2,3,1,,4,0,0,0,2,6,3,0,19,10
157769,2.2002.1563,Photographs,American,Modern and Contemporary Art,Window Sill,2011,2028439,"North America, United States, New York",43,-75,29386,American,Minor White,Artist,,8,15,11,8,8,5,0,3,0,7,,,,3,1,,,,,,,,,,,,,,,,2,,,,,,,,,,,,,,11,31,26,9,10,6,0,3,0,7,,3,2,0,0,0,0,0,0,6,10
174518,P1978.59,Photographs,American,Modern and Contemporary Art,Chicago 30,1978,2029827,"North America, United States, Illinois, Chicago",41.85,-87.65,28734,American,Aaron Siskind,Artist,,,,1,0,1,,,,,,,,,,1,1,0,1,0,0,1,,,,,3,,,,,,,,,,,,1,,,,,,,,,2,0,1,,,,,,,5,0,0,8,3,10,5,,,
254121,M24007,Prints,American,Modern and Contemporary Art,Third Avenue Elevated #1,1996,0,,0,0,31706,American,Ralston Crawford,Artist,,1,1,3,3,2,4,0,1,,,,,,,6,2,0,0,0,0,2,,,,,4,0,0,1,,,,,,,,1,,,,,,,,1,2,6,3,2,6,0,1,,,,,,4,11,2,7,4,14,,
255486,M22545,Prints,American,Modern and Contemporary Art,Untitled (green),1994,0,,0,0,26859,American,Ellsworth Kelly,Artist,,,1,0,1,1,0,2,4,1,1,,,,1,1,3,0,0,0,0,1,,,,4,1,0,0,0,1,0,1,,,,,,1,,,,,,,,2,0,1,1,0,2,4,1,1,,5,2,2,4,4,7,4,3,0,2
284189,P1978.17,Photographs,American,Modern and Contemporary Art,New York,1978,2028439,"North America, United States, New York",43,-75,28734,American,Aaron Siskind,Artist,,,,,,1,4,1,1,1,,,,,,1,1,0,1,0,0,1,,,,,3,,,,,,,,,,,,1,,,,,,,,,,,1,5,1,2,1,,,5,0,0,8,7,10,5,,,
285081,P1979.17,Photographs,German,Modern and Contemporary Art,Untitled (photogram),1979,2028383,"Europe, Germany",51.5,10.5,34619,German,Lotte Jacobi,Artist,,,,2,1,1,0,5,4,0,2,,,,,1,1,0,0,0,0,1,,,,1,0,0,0,1,1,1,,,,,,,,,,,,,,,,4,1,1,0,5,5,0,2,,4,0,2,0,1,6,7,9,6,8
330817,M22544-M22547,Prints,American,Modern and Contemporary Art,The Mallarmé Suite portfolio,1994,0,,0,0,26859,American,Ellsworth Kelly,Artist,,,,1,1,7,3,17,8,6,2,,5,0,1,3,2,0,0,0,0,2,,,,,,,,,,,,,,,,,1,,,,,,,,,2,1,7,3,18,9,8,2,,1,1,,,,,,,,
218869,1995.54,Multiples,German,Modern and Contemporary Art,In Memoriam George Maciunas,1995,0,,0,0,27839,German,Joseph Beuys,Artist,,,1,2,7,18,13,9,12,9,39,,,,,1,3,6,4,0,2,,,,,,1,0,0,0,0,3,,,,,,,,,,,,,,,1,4,12,24,15,9,13,9,42,,6,0,1,4,5,10,17,2,9,5
219198,1995.265,Multiples,German,Modern and Contemporary Art,Phosphorus-Cross Sled,1995,0,,0,0,27839,German,Joseph Beuys,Artist,,,,1,10,25,21,13,6,10,6,,,,,5,2,1,2,,,,,,,,3,0,0,1,0,0,1,,,,,,1,,,,,,,,,2,15,29,23,13,6,10,8,,8,0,2,6,4,1,0,2,,
219583,1986.3,Drawings,German,Modern and Contemporary Art,Face Farce,1986,0,,0,0,28210,Austrian,Arnulf Rainer,Artist,,6,9,8,5,0,1,4,2,1,7,,,,,1,1,0,3,,,,,,,,3,0,0,0,4,5,1,,,,,,,,,,,,,6,16,18,8,0,1,5,2,1,7,,6,0,0,4,0,1,3,13,16,8
7447,M26446.30,Multiples,American,Modern and Contemporary Art,Events,2005,0,,0,0,35031,American,Robert Watts,Artist,,1,0,1,0,1,1,4,1,3,,,,,1,2,2,0,2,0,0,1,,,,,,,,,,1,,,,,,,,,,1,,,,1,0,2,0,1,1,4,1,3,,,1,0,0,0,0,0,2,,,
351489,2014.211,Sculpture,American,Modern and Contemporary Art,Fluxus Express,2014,0,,0,0,34212,American,Nam June Paik,Artist,,,,,,,4,46,18,27,15,,,,,,,24,1,0,0,1,,,,,,,,,,,,,,,,,,,,,,,,,,,,,4,50,18,30,17,,,,,,,4,0,0,0,3
18757,M26395,Multiples,American,Modern and Contemporary Art,Water Yam,2005,0,,0,0,29606,American,George Brecht,Artist,,2,0,7,15,13,3,0,1,1,4,,,,3,4,1,1,1,0,0,1,,,,,3,0,0,0,0,2,3,,,,,,1,,,,,,,5,0,16,18,16,3,0,2,1,4,,3,0,3,9,7,8,3,1,7,9
29157,M26436,Multiples,American,Modern and Contemporary Art,Smile Flux Machine for Yoko Ono,2005,0,,0,0,33967,American,George Maciunas,Artist,,1,4,0,9,12,8,12,6,2,11,,,,1,4,3,1,1,0,0,1,,,,,,,,1,0,0,1,,,,,,,,,1,,,,1,6,0,12,15,9,14,7,2,11,,4,0,0,7,0,10,3,2,0,8
29324,M26458,Multiples,American,Modern and Contemporary Art,A Box of Smile,2005,0,,0,0,35054,American,Yoko Ono,Artist,,8,11,18,3,7,2,13,18,14,23,,,,1,3,3,0,1,0,0,1,,,,3,2,0,0,0,1,0,2,,,,,,,,,1,,,,8,20,38,6,7,3,14,22,14,25,,8,0,0,13,5,1,0,3,0,11
30036,M26382,Multiples,American,Modern and Contemporary Art,Finger Box,2005,0,,0,0,21154,Japanese,Ay-O,Artist,,1,1,0,4,0,3,3,2,2,1,,,,1,3,2,0,1,0,0,1,,,,,1,0,0,0,0,0,2,,,,,,,,,,,,,1,2,0,5,0,3,3,3,2,2,,2,0,0,12,3,0,0,0,0,14
328488,2008.233,Paintings,American,Modern and Contemporary Art,Untitled,2008,0,,0,0,26402,American,Kerry James Marshall,Artist,,47,70,14,20,19,57,203,150,267,211,,8,1,2,1,2,0,2,,,,,,,,,,,,,1,9,,,,2,,,,,,,,,57,136,34,33,30,75,251,170,306,245,,1,0,4,2,0,9,0,4,5,17
358007,2017.77,Drawings,American,Modern and Contemporary Art,Small American Fires,2017,0,,0,0,64047,American,Teresita Fernandez,Artist,,,,,,,,,,2,41,,,,,,,,,,25,,,,,,,,,,,4,,,,,,,,,,,,,,,,,,,,,,2,54,,,,,,,,,,3,1
18383,M26394,Multiples,American,Modern and Contemporary Art,Valoche / A Flux Travel Aid,2005,0,,0,0,29606,American,George Brecht,Artist,,2,3,1,5,5,2,3,3,5,6,,,,1,4,1,0,1,0,1,1,,,,,2,0,0,0,0,2,,,,,,,,,,1,,,,7,4,2,7,5,2,3,4,5,7,,7,0,2,7,7,1,,,,
69795,M25971,Multiples,American,Modern and Contemporary Art,Enclosed,2004,0,,0,0,34208,American,Eva Hesse,Artist,,,2,4,6,5,4,6,11,5,4,,,,1,3,2,0,2,0,0,1,,,,,,,,2,0,3,1,,,,,,,,,,1,,,,3,10,10,5,4,7,15,6,6,,4,0,1,8,8,0,13,1,12,2
191266,M24192,Prints,American,Modern and Contemporary Art,Every Building on the Sunset Strip,1999,0,,0,0,28417,American,Edward Ruscha,Artist,,1,2,4,1,8,3,17,13,5,19,,,,3,3,3,0,2,1,0,1,,,,1,3,0,0,1,3,1,3,,,,,,,,,,,,,1,2,8,1,10,3,18,15,6,24,,3,10,4,16,6,7,10,14,6,7
218483,1995.540.4,Multiples,Korean,Modern and Contemporary Art,"Certificate for Primeval Piano, from the portfolio ""In Memoriam George Maciunas""",1995,0,,0,0,34212,American,Nam June Paik,Artist,,,,,2,5,0,2,3,0,2,,,,,1,3,5,4,0,1,,,,,,1,0,0,1,0,2,,,,,,,,,,,,,,,,,3,6,0,2,3,0,2,,6,0,2,11,4,14,6,4,7,6
219168,1995.329,Multiples,German,Modern and Contemporary Art,Cobblestone,1995,0,,0,0,27839,German,Joseph Beuys,Artist,,1,0,0,7,3,5,0,1,0,1,,,,,4,1,1,2,,,,,,,,2,0,0,0,0,0,2,,,,,,,,,,,,,1,0,0,8,4,6,0,1,0,1,,6,0,2,6,3,1,0,0,0,12
222132,1984.192,Paintings,German,Modern and Contemporary Art,"Sketch for ""Hero’s Chant""",1984,0,,0,0,18074,German,Konrad Klapheck,Artist,,3,4,12,4,5,5,8,2,15,18,,,,,1,1,2,1,3,,,,,,,,,,,,1,1,,,,2,,,,,,,,,3,7,28,8,5,9,8,4,17,20,,3,0,0,0,0,0,1,0,6,7
231281,28.1993,Prints,American,Modern and Contemporary Art,L A AIR,,0,,0,0,27791,American,Bruce Nauman,Artist,,5,3,5,2,3,16,8,6,22,31,,,,,4,1,6,3,1,0,1,,,,2,5,0,0,3,1,1,,,,,,1,,,,,,,,5,7,14,3,3,18,9,7,24,31,,4,3,10,20,9,10,13,15,7,2
7103,M26446.19,Multiples,American,Modern and Contemporary Art,"Fluxus Vaseline sTREet No. 8 May, 1966",2005,0,,0,0,33967,American,George Maciunas,Artist,,7,2,3,3,4,1,8,5,2,3,,1,0,1,2,2,0,2,0,0,1,,,,,,,,,,1,,,,,,,,,,,,,,7,4,8,4,7,1,8,5,2,3,,1,0,0,0,0,0,2,,,
7427,M26446.27,Multiples,American,Modern and Contemporary Art,Le choix du facteur [The postman's choice],2005,0,,0,0,18179,French,Ben Vautier,Artist,,1,1,1,2,6,8,7,10,10,2,,,,1,2,2,0,2,0,0,1,,,,,,,,,,1,,,,,,,,,,,,,,1,2,2,7,8,13,7,11,13,2,,1,0,0,0,0,0,2,,,
7436,M26446.13,Multiples,American,Modern and Contemporary Art,"Fluxus cc V TRE Fluxus No. 2 February, 1964",2005,0,,0,0,33967,American,George Maciunas,Artist,,1,0,0,3,5,4,12,5,10,13,,1,0,1,2,2,0,2,0,0,1,,,,,,,,1,0,1,,,,,,,,,,,,,,1,0,0,5,5,6,15,5,11,21,,1,0,0,0,0,0,2,,,
7463,M26446.15,Multiples,American,Modern and Contemporary Art,"Fluxus cc fiVe ThReE No. 4 June, 1964",2005,0,,0,0,33967,American,George Maciunas,Artist,,,,,1,7,8,15,0,4,5,,1,0,1,2,2,0,2,0,0,1,,,,,,,,,,2,,,,,,,,,,,,,,,,,1,9,9,18,0,4,5,,1,0,0,0,0,0,2,,,
7466,M26446.4,Multiples,American,Modern and Contemporary Art,Iced Dice,2005,0,,0,0,29606,American,George Brecht,Artist,,1,0,1,3,6,2,6,4,2,1,,,,1,2,2,0,2,0,0,1,,,,,,,,,,1,,,,,,,,,,,,,,1,0,2,3,6,2,6,4,2,1,,1,0,0,0,0,0,2,,,
7472,M26446.8,Multiples,American,Modern and Contemporary Art,Bean Rolls,2005,0,,0,0,18226,American,Alison Knowles,Artist,,1,0,3,4,8,3,12,4,2,7,,,,1,2,2,1,2,0,0,1,,,,,,,,,,1,,,,,,,,,,,,,,2,0,6,7,10,4,12,5,2,7,,1,0,0,0,0,0,2,,,
258885,M21733,Prints,American,Modern and Contemporary Art,Landscape 6,1991,0,,0,0,27192,American,Roy Lichtenstein,Artist,,,2,1,3,3,2,35,13,12,2,,,,1,6,6,7,4,0,1,1,,,,1,8,0,0,0,1,3,3,,,,,1,,,,,,,,,4,2,4,3,3,37,14,14,2,,4,2,4,30,6,9,5,14,8,6
258886,M21734,Prints,American,Modern and Contemporary Art,Landscape 7,1991,0,,0,0,27192,American,Roy Lichtenstein,Artist,,,1,0,1,8,4,1,0,3,,,,,1,6,5,4,5,0,1,1,,,,1,8,0,0,0,1,4,3,,,,,1,,,,,,,,,2,0,1,9,4,1,0,3,,,4,2,4,30,6,9,5,16,11,6
260945,M22396,Prints,American,Modern and Contemporary Art,Untitled,1993,0,,0,0,29318,American,Andy Warhol,Artist,,1,5,2,2,1,2,9,0,1,0,,,,1,10,3,0,0,0,0,1,,,,,2,0,0,1,1,2,,,,,,1,,,,,,,,1,10,6,4,1,2,10,0,1,0,,9,0,0,6,8,4,5,0,5,
285959,P1972.10,Photographs,American,Modern and Contemporary Art,Their numbers were picked out of a hat. They were just chosen King and Queen of a Senior Citizens dance in N.Y.C. Yetta Granat is 72 and Charles Fahrer is 79. They have never met before. 1970,1972,2028439,"North America, United States, New York",43,-75,34517,American,Diane Arbus,Artist,,6,8,4,6,14,16,35,8,9,3,,,,,1,3,1,1,0,0,1,,,,,2,0,0,1,2,0,3,,,,,,,,,,,,,6,14,8,10,14,16,47,10,9,3,,4,0,9,6,3,8,4,6,0,6
312540,2006.55,Multiples,American,Modern and Contemporary Art,A Flux Atlas,2006,0,,0,0,35031,American,Robert Watts,Artist,,3,1,3,9,24,7,3,9,15,9,,1,0,0,4,2,0,2,,,,,,,,1,0,0,0,1,3,,,,,,,,,,1,,,,7,1,6,12,28,10,3,11,16,10,,8,0,0,3,10,1,0,3,17,
227498,1978.531,Sculpture,American,Modern and Contemporary Art,Total Totality II,1978,2028213,"North America, United States",38,-98,27809,American,Louise Nevelson,Artist,,13,3,2,13,14,23,127,74,92,76,,2,0,0,1,2,0,1,1,,,,,,,,,,,,,,,,,1,,,,,,,,,16,5,5,20,17,28,168,84,106,92,,1,0,0,0,0,2,,,,
29151,M26468,Multiples,American,Modern and Contemporary Art,Potentially Dangerous Electrical Household Appliance,2005,0,,0,0,17454,American,Jock Reynolds,Artist,,,,1,3,13,2,2,2,0,3,,,,1,3,3,0,1,0,0,1,,,,,,,,,,,2,,,,,,,,,1,,,,,,2,3,13,2,2,2,0,3,,4,0,0,6,8,1,0,2,0,11
29271,M26446,Multiples,American,Modern and Contemporary Art,Flux-Kit,2005,2028213,"North America, United States",38,-98,22444,,Various Artists,Artist,,2,1,1,11,22,31,132,188,211,283,,,,1,2,2,1,2,0,0,1,,,,,3,0,0,2,0,14,7,,,,,,1,0,0,1,,,,2,2,2,14,24,35,148,232,240,331,,9,3,2,22,12,8,13,5,35,23
29735,M26485,Multiples,French,Modern and Contemporary Art,Theatre d'art total,2005,0,,0,0,18179,French,Ben Vautier,Artist,,,1,2,5,5,5,6,1,2,2,,,,1,4,2,1,1,0,0,1,,,,,2,0,0,1,,,,,,,,,,,,1,,,,,1,4,6,5,5,9,1,2,2,,8,0,0,6,4,8,6,4,,
30022,M26381,Multiples,American,Modern and Contemporary Art,Finger Box,2005,0,,0,0,21154,Japanese,Ay-O,Artist,,2,3,0,40,81,78,49,83,36,55,,,,1,3,2,0,1,0,0,1,,,,,3,0,0,0,0,0,2,,,,,,,,,,,,,2,6,0,53,89,83,54,87,39,60,,7,0,0,12,3,0,0,0,0,14
58161,2004.52,Photographs,Austrian,Modern and Contemporary Art,Zuhockung II,2004,0,,0,0,7691,Austrian,VALIE EXPORT,Artist,,1,13,5,7,10,6,9,30,7,6,,,,,2,2,0,2,0,0,1,,,,,5,0,0,2,2,3,1,,,,,1,,,,,,,,1,27,10,14,14,6,9,48,7,6,,8,3,20,14,0,5,8,6,8,8
217985,1997.107,Multiples,German,Modern and Contemporary Art,Bonn Kunstverein 11.8.1977,1997,0,,0,0,27839,German,Joseph Beuys,Artist,,,,,3,6,1,9,2,1,3,,,,,4,1,1,2,,,,,,,,2,,,,,,,,,,,,,,,,,,,,,,5,6,1,9,7,1,3,,4,0,0,7,18,7,6,,,
218553,1995.540.2,Multiples,Korean,Modern and Contemporary Art,"Primeval Piano, from the portfolio ""In Memoriam George Maciunas""",1995,0,,0,0,34212,American,Nam June Paik,Artist,,,2,3,4,10,0,5,4,2,3,,,,,1,2,4,3,0,2,,,,,,1,0,0,2,0,1,,,,,,,,,,,,,,,3,8,7,19,0,6,4,3,3,,6,0,0,0,0,0,0,0,0,2
218971,1995.272.A-B,Multiples,German,Modern and Contemporary Art,"Enterprise 11/18/72, 18:5:16 hours",1995,0,,0,0,27839,German,Joseph Beuys,Artist,,,,2,5,3,6,4,1,4,,,,,,4,1,1,2,,,,,,,,3,0,0,0,0,2,,,,,,,,,,,,,,,,4,6,4,6,5,1,4,,,5,0,0,8,3,2,0,0,11,
219225,1995.243,Multiples,German,Modern and Contemporary Art,"in ""interfunktionen 6""",1995,0,,0,0,27839,German,Joseph Beuys,Artist,,,,,,5,6,4,2,1,3,,,,,5,1,1,2,,,,,,,,3,0,0,1,,,,,,,,,,,,,,,,,,,,7,7,5,2,1,3,,5,0,0,7,7,9,6,,,
236127,34.1993,Prints,American,Modern and Contemporary Art,CLEA RSKY,,0,,0,0,27791,American,Bruce Nauman,Artist,,1,3,7,1,1,10,59,8,19,10,,,,,4,1,6,0,1,,,,,,2,5,0,0,2,1,,,,,,,1,,,,,,,,1,5,14,2,1,10,64,8,20,12,,4,3,10,20,9,12,10,15,7,2
7101,M26446.22,Multiples,American,Modern and Contemporary Art,Endless Box,2005,0,,0,0,25596,Japanese,Mieko (Chieko) Shiomi,Artist,,6,2,5,5,8,4,7,4,2,6,,,,1,3,1,0,2,0,0,1,,,,,,,,,,1,,,,,,,,,,,,,,9,4,10,7,9,4,7,4,2,6,,1,0,0,0,0,0,2,,,
7102,M26446.21,Multiples,American,Modern and Contemporary Art,Instruction No. 2,2005,0,,0,0,21750,American,Ben Patterson,Artist,,6,3,4,4,3,3,7,1,0,5,,,,1,2,2,0,2,0,0,1,,,,,,,,,,1,,,,,,,,,,1,,,,9,6,8,8,3,4,7,1,0,5,,1,0,0,0,0,0,2,,,
7105,M26446.10,Multiples,American,Modern and Contemporary Art,Mystery Flux Animal,2005,0,,0,0,33967,American,George Maciunas,Artist,,2,0,3,4,5,3,5,0,1,4,,,,1,2,2,0,2,0,0,1,,,,,,,,,,1,,,,,,,,,,,,,,2,0,6,5,5,3,5,0,1,4,,1,0,0,0,0,0,2,,,
7106,M26446.7,Multiples,American,Modern and Contemporary Art,Events,2005,0,,0,0,25863,Japanese,Takehisa Kosugi,Artist,,2,1,1,2,3,1,6,,,,,,,1,2,2,0,2,0,0,1,,,,,,,,,,1,,,,,,,,,,,,,,2,2,2,2,3,1,6,,,,,1,0,0,0,0,0,2,,,
7437,M26446.11,Multiples,American,Modern and Contemporary Art,Fluxkit,2005,0,,0,0,33967,American,George Maciunas,Artist,,1,0,0,2,1,1,5,2,4,11,,,,1,2,2,0,2,0,0,1,,,,,,,,,,1,,,,,,,1,,,,,,,1,0,0,2,1,1,5,2,4,12,,1,0,0,0,0,0,2,,,
7438,M26446.9,Multiples,American,Modern and Contemporary Art,Fresh Goods From the East,2005,0,,0,0,33967,American,George Maciunas,Artist,,1,0,0,2,6,3,6,3,2,1,,,,1,2,2,0,2,0,0,1,,,,,,,,,,1,,,,,,,,,,,,,,2,0,0,2,7,3,6,3,2,1,,1,0,0,0,0,0,2,0,1,
7465,M26446.5,Multiples,American,Modern and Contemporary Art,Fluxkit,2005,0,,0,0,34174,American,Dick Higgins,Artist,,1,1,5,4,4,3,9,1,1,1,,,,1,2,2,0,2,0,0,1,,,,,,,,,,1,,,,,,,,,,,,,,1,2,12,4,4,3,9,1,1,1,,1,0,0,0,0,0,2,,,
7467,M26446.2,Multiples,American,Modern and Contemporary Art,"Games & Puzzles: Inclined Plane Puzzle, Ball Puzzle",2005,0,,0,0,29606,American,George Brecht,Artist,,,,1,7,12,9,13,9,6,7,,,,1,2,2,0,2,0,0,1,,,,,,,,,,1,,,,,,,,,,,,,,,,2,7,12,12,14,11,7,9,,1,0,0,0,0,0,2,,,
7471,M26446.12,Multiples,American,Modern and Contemporary Art,"Fluxus cc V TRE Fluxus No. 1 January, 1964",2005,0,,0,0,33967,American,George Maciunas,Artist,,1,0,0,4,5,7,15,4,5,15,,1,0,1,2,2,0,2,0,0,1,,,,,,,,,,2,,,,,,,,,,,,,,1,0,0,6,12,8,21,5,5,17,,1,0,0,0,0,0,2,,,
336309,2010.544,Sculpture,American,Modern and Contemporary Art,Untitled,2010,2028444,"North America, United States, New York, New York City",40.7,-74,18321,American,Robert Gober,Artist,,,1,207,87,18,27,78,63,31,13,,,19,6,3,1,5,2,,,,,,,,,,,,,,,,,,1,,,,,,,,,,4,504,162,29,34,89,69,33,14,,,4,0,0,0,2,0,0,1,
54434,2003.10.10,Drawings,American,Modern and Contemporary Art,Drawing for Cloth Work #10,2003,2028213,"North America, United States",38,-98,33266,American,Richard Tuttle,Artist,,,,1,2,2,1,4,1,1,,,1,0,1,1,2,3,,,,,,,,,,,,,1,,,,,,,1,,,,,,,,,,2,4,2,1,4,1,1,,,3,0,0,3,0,7,0,7,1,
218552,1995.540.1,Multiples,German,Modern and Contemporary Art,"Felt Wedge from the portfolio ""In Memoriam George Maciunas""",1995,0,,0,0,27839,German,Joseph Beuys,Artist,,,,,1,0,1,11,13,4,5,,,,,4,2,1,3,,,,,,,,1,0,0,1,0,1,,,,,,,,,,,,,,,,,2,0,3,17,15,4,6,,6,0,0,0,0,0,2,0,0,2
218554,1995.540.3,Multiples,German,Modern and Contemporary Art,"Piano Duet, from the portfolio ""In Memoriam George Maciunas""",1995,0,,0,0,34212,American,Nam June Paik,Artist,,,1,1,5,15,8,2,9,7,5,,,,,1,2,6,3,,,,,,,,1,0,0,1,0,2,,,,,,,,,,,,,,,2,2,5,23,8,2,14,9,5,,6,0,0,0,0,0,9,1,7,6
219424,1995.216,Multiples,German,Modern and Contemporary Art,Intuition,1995,0,,0,0,27839,German,Joseph Beuys,Artist,,2,0,1,1,8,2,6,1,0,1,,,,,13,2,2,2,,,,,,,,1,,,,,,,,,,,,,,,,,,,2,0,2,2,11,2,6,2,0,1,,6,0,0,3,4,7,1,6,,
7100,M26446.23,Multiples,American,Modern and Contemporary Art,Events,2005,0,,0,0,25596,Japanese,Mieko (Chieko) Shiomi,Artist,,5,5,6,4,2,3,7,4,0,4,,,,1,2,2,0,2,0,0,1,,,,,,,,,,2,,,,,,,,,,1,,,,8,11,12,7,2,3,7,4,0,4,,1,0,0,0,0,0,2,,,
7104,M26446.18,Multiples,American,Modern and Contemporary Art,"Fluxus 3 newspaper eVenTs for the pRicE of $1 No. 7 February 1, 1966",2005,0,,0,0,33967,American,George Maciunas,Artist,,1,4,1,4,3,9,19,7,14,6,,1,0,1,2,2,0,2,0,0,1,,,,,,,,,,1,,,,,,,,,,,,,,1,7,2,9,3,10,21,8,15,8,,1,0,0,0,0,0,2,,,
7404,M26446.28,Multiples,American,Modern and Contemporary Art,Holes,2005,0,,0,0,33967,American,George Maciunas,Artist,,1,2,0,1,4,2,8,12,6,1,,,,1,2,2,0,2,0,0,1,,,,,,,,,,2,,,,,,,,,,,,,,1,4,0,1,4,2,8,16,7,1,,1,0,0,0,0,0,2,,,
7446,M26446.1,Multiples,American,Modern and Contemporary Art,Finger Box,2005,0,,0,0,21154,Japanese,Ay-O,Artist,,1,1,0,24,29,67,32,17,22,10,,,,1,2,2,0,2,0,0,1,,,,,,,,,,6,2,,,,,,,,,1,,,,1,2,0,29,31,71,34,17,25,12,,1,0,0,0,0,0,2,,,
7464,M26446.6,Multiples,American,Modern and Contemporary Art,A Favorite Song,2005,0,,0,0,25861,American,Joe Jones,Artist,,6,4,2,3,3,2,6,0,0,1,,,,1,2,2,0,2,0,0,1,,,,,,,,,,1,,,,,,,,,,,,,,7,6,4,4,3,2,6,0,0,1,,1,0,0,0,0,0,2,,,
286039,P1972.5,Photographs,American,Modern and Contemporary Art,A family on the lawn one Sunday in Westchester in June 1968,1972,2028439,"North America, United States, New York",43,-75,34517,American,Diane Arbus,Artist,,9,6,2,4,11,5,29,3,8,1,,,,,1,1,1,1,0,0,1,,,,,2,0,0,1,2,0,2,,,,,,,,,,,,,9,10,4,5,12,5,38,3,9,1,,4,3,9,6,6,8,4,6,0,3
30009,M26392,Multiples,American,Modern and Contemporary Art,Universal Machine II,2005,0,,0,0,29606,American,George Brecht,Artist,,1,0,1,6,6,8,11,4,1,1,,,,1,4,3,0,1,0,0,1,,,,,,,,,,,2,,,,,,,,,,,,,1,0,2,8,7,11,13,4,1,1,,4,0,3,6,7,1,0,0,0,12
31493,M26429,Prints,American,Modern and Contemporary Art,Bundle of Events,2005,0,,0,0,24985,Japanese,Hi Red Center,Artist,,3,4,3,4,10,10,13,13,2,2,,,,1,1,2,1,1,0,0,1,,,,,3,0,0,2,0,0,2,,,,,,,,,,,,,3,7,6,6,12,18,20,17,2,2,,6,0,0,9,2,0,11,2,0,6
28839,M26420,Multiples,American,Modern and Contemporary Art,Flux Finger Sweater,2005,0,,0,0,29604,Danish,Per Kirkeby,Artist,,3,1,16,3,9,7,14,11,15,13,,,,1,3,3,0,1,0,0,1,,,,,2,0,0,0,0,1,2,,,,,,,,,,1,,,3,2,50,4,10,7,14,11,16,14,,7,0,0,9,5,1,0,2,3,11
29326,M26448.1-43,Multiples,American,Modern and Contemporary Art,Flux Year Box 2,2005,2028213,"North America, United States",38,-98,22444,,Various Artists,Artist,,5,6,11,24,12,25,75,294,235,208,,1,0,1,4,2,0,1,0,0,1,,,,,5,0,0,0,0,1,3,,,,,,,,,1,,,,7,9,40,64,15,33,97,327,276,255,,8,0,0,16,9,0,0,2,2,13
30013,M26492,Multiples,American,Modern and Contemporary Art,Flux Timekit,2005,0,,0,0,35031,American,Robert Watts,Artist,,2,1,2,4,7,4,11,4,0,3,,,,1,4,3,0,1,0,0,1,,,,,,,,,,2,1,,,,,,,,,1,,,,2,2,4,4,7,4,12,4,0,3,,8,0,5,5,7,1,0,2,14,3
194833,P1998.45,Photographs,Brazilian,Modern and Contemporary Art,A Pao Nosso de Cada Dia (Our Daily Bread),1998,2029985,"South America, Brazil",-10,-55,19347,Brazilian,Anna Bella Geiger,Artist,,16,13,12,11,7,17,15,63,21,21,,,,,1,1,0,1,,,,,,,,,,,1,0,1,,,,,,,1,,,,,,,16,21,28,23,8,20,15,78,23,22,,4,0,0,0,2,11,4,7,4,
197480,1998.119,Sculpture,American,Modern and Contemporary Art,White Rocker,1998,0,,0,0,33266,American,Richard Tuttle,Artist,,1,3,0,1,3,1,9,2,1,1,,1,0,0,2,2,1,2,,,,,,,,,,,2,1,,,,,,,,,,,,,,,1,6,0,1,5,1,14,2,1,2,,5,0,1,8,0,0,10,2,2,
219041,1995.722.A-B,Books,German,Modern and Contemporary Art,24 Hours,1995,0,,0,0,27839,German,Joseph Beuys,Artist,,,,3,1,4,4,17,20,22,78,,5,0,3,2,1,0,2,,,,,,,1,6,0,0,0,1,3,2,,,,,,,,,,,,,,,6,1,5,4,22,22,27,98,,6,0,2,14,6,0,6,5,13,9
219089,1995.293,Multiples,German,Modern and Contemporary Art,Noiseless Blackboard Eraser,1995,0,,0,0,27839,German,Joseph Beuys,Artist,,,,4,3,7,5,10,14,13,4,,,,1,5,1,1,2,,,,,,,1,2,0,0,0,0,1,,,,,,,,,,,,,,,,8,3,8,5,10,15,14,4,,7,0,2,7,2,0,0,0,10,
219155,1995.256,Multiples,German,Modern and Contemporary Art,Blackboard,1995,0,,0,0,27839,German,Joseph Beuys,Artist,,1,0,4,1,3,3,0,0,0,1,,,,,5,1,1,2,,,,,,,1,2,0,0,0,0,0,2,,,,,,,,,,,,,1,0,8,2,3,3,0,0,0,1,,5,0,2,9,4,4,0,0,0,12
221697,1987.42,Paintings,Swiss,Modern and Contemporary Art,Subtle Construction,1987,0,,0,0,23219,Swiss,Camille Graeser,Artist,,,,,,1,4,5,0,15,6,,,,,1,1,0,1,,,,,,,2,0,0,0,3,2,1,,,,,,,,,,,,,,,,,,1,4,5,0,17,9,,4,1,0,0,0,7,13,3,5,
227526,1981.193,Paintings,Swiss,Modern and Contemporary Art,Square from Nine Rectangles,1981,0,,0,0,28036,Swiss,Max Bill,Artist,,,7,4,0,3,4,12,55,45,26,,1,0,0,2,1,0,6,0,0,1,,,,,,,,,,1,,,,,,,,,1,,,,,,14,8,0,3,6,12,57,61,29,,4,0,2,0,0,4,8,3,7,
7403,M26446.29,Multiples,American,Modern and Contemporary Art,Rocks Marked by Weight,2005,0,,0,0,35031,American,Robert Watts,Artist,,1,0,4,0,5,0,5,1,0,4,,,,1,2,2,0,2,0,0,1,,,,,,,,,,2,,,,,,,,,,1,,,,1,0,8,0,5,0,5,1,0,4,,1,0,0,0,0,0,2,,,
7434,M26446.25,Multiples,American,Modern and Contemporary Art,Dirty Water,2005,0,,0,0,18179,French,Ben Vautier,Artist,,1,2,11,4,2,1,5,3,0,2,,,,1,2,2,0,2,0,0,1,,,,,,,,,,1,,,,,,,,,,1,,,,1,6,24,4,2,1,5,3,0,2,,1,0,0,0,0,0,2,,,
7459,M26446.26,Multiples,American,Modern and Contemporary Art,The Postman's Choice,2005,0,,0,0,18179,French,Ben Vautier,Artist,,2,1,2,2,7,7,11,10,1,1,,,,1,2,2,0,2,0,0,1,,,,,,,,1,0,1,2,,,,,,,,,,,,,2,2,4,2,7,8,18,13,2,1,,1,0,0,0,0,0,2,,,
7461,M26446.17,Multiples,American,Modern and Contemporary Art,"Fluxus Vaudeville TouRnamEnt No. 6 July, 1965",2005,0,,0,0,33967,American,George Maciunas,Artist,,,,,1,5,1,6,3,5,6,,1,0,1,2,2,0,2,0,0,1,,,,,,,,,,1,,,,,,,,,,,,,,,,,2,6,1,6,3,5,7,,1,0,0,0,0,0,2,,,
7462,M26446.16,Multiples,American,Modern and Contemporary Art,"Fluxus Vacuum TRapEzoid No. 5 March, 1965",2005,0,,0,0,33967,American,George Maciunas,Artist,,1,0,0,2,8,1,12,0,5,4,,1,0,1,2,2,0,2,0,0,1,,,,,,,,,,1,,,,,,,,,,,,,,1,0,0,4,8,1,12,0,6,6,,1,0,0,0,0,0,2,,,
7510,M26446.31,Multiples,American,Modern and Contemporary Art,An Opera,2005,0,,0,0,26456,American,Emmett Williams,Artist,,1,0,1,2,3,3,4,4,4,7,,,,1,2,2,0,3,0,0,1,,,,,2,0,0,1,0,2,,,,,,,,,,,,,,1,0,2,2,3,3,4,4,5,8,,1,0,0,0,0,0,1,2,,
254421,M22717.B,Prints,American,Modern and Contemporary Art,Hat,1995,0,,0,0,27192,American,Roy Lichtenstein,Artist,,,2,0,2,8,3,17,1,1,1,,,,1,1,2,8,4,0,1,2,,,,,3,0,0,2,1,0,1,,,,,1,,,,,,,,,6,0,3,8,3,18,1,1,1,,4,0,0,22,11,13,10,17,0,6
258802,M21736,Prints,American,Modern and Contemporary Art,Landscape 9,1991,0,,0,0,27192,American,Roy Lichtenstein,Artist,,,3,0,2,3,1,15,3,4,2,,,,1,7,6,4,5,0,1,1,,,,1,8,0,0,1,1,4,3,,,,,1,,,,,,,,,5,0,3,3,2,15,3,4,2,,4,2,4,30,6,9,8,14,9,6
260942,M22391,Prints,American,Modern and Contemporary Art,Untitled,1993,0,,0,0,29318,American,Andy Warhol,Artist,,1,12,3,7,51,20,26,19,7,8,,,,1,9,3,0,1,0,0,1,,,,1,3,0,0,1,1,1,,,,,,,,,,,,,,1,27,8,10,61,22,27,20,7,9,,9,3,6,10,8,5,5,2,3,
260947,M22400,Prints,American,Modern and Contemporary Art,Untitled,1993,0,,0,0,29318,American,Andy Warhol,Artist,,,4,0,6,2,0,6,4,1,,,,,1,10,3,0,2,0,0,1,,,,,2,0,0,0,1,2,1,,,,,1,,,,,,,,,11,0,9,3,0,6,4,2,,,10,0,0,4,0,4,3,2,5,2
330822,2009.19,Drawings,Venezuelan,Modern and Contemporary Art,Untitled,2009,0,,0,0,21460,Venezuelan,Gego (Gertrude Goldschmidt),Artist,,5,6,7,3,11,3,9,16,12,6,,17,3,0,2,2,0,1,,,,,,,,,,,,3,1,1,,,,,1,,,,,,,,5,10,16,3,11,3,10,17,14,7,,13,1,0,7,5,9,5,14,7,4
221117,1992.47,Photographs,German,Modern and Contemporary Art,Mobile Plane,1992,0,,0,0,28544,German,Toni Schneiders,Artist,,,,1,1,0,0,0,5,1,,,,,,1,1,0,4,,,,,,,,,,,1,2,1,,,,,,,,,,,,,,,,2,2,0,0,0,6,1,,,5,0,0,0,0,6,2,10,9,5
221498,1991.49,Photographs,German,Modern and Contemporary Art,Still Life with Fish,1991,0,,0,0,28841,German,Otto Steinert,Artist,,,,,,2,1,0,4,5,2,,,,,1,1,0,3,,,,,,,,3,0,0,0,2,1,,,,,,,,,,,,,,,,,,2,1,0,5,5,3,,5,0,0,8,0,6,0,7,9,5
221506,1992.36,Photographs,German,Modern and Contemporary Art,Staircase,1992,0,,0,0,26850,German,Peter Keetman,Artist,,,,1,0,7,1,1,0,3,2,,,,,1,1,0,2,1,,,,,,,3,0,0,1,3,2,,,,,,,,,,,,,,,,2,0,7,1,1,0,3,4,,5,0,0,5,2,7,3,17,11,4
253849,M23464,Prints,American,Modern and Contemporary Art,Locust,1997,0,,0,0,26859,American,Ellsworth Kelly,Artist,,,3,1,0,1,1,2,1,2,1,,,,1,3,1,1,0,0,0,2,,,,4,1,0,0,0,3,1,,,,,,,,,,,,,,,6,2,0,1,1,2,1,2,1,,6,0,2,4,0,5,0,8,13,
283193,P1996.10,Photographs,American,Modern and Contemporary Art,Third Avenue El,1996,2028444,"North America, United States, New York, New York City",40.7,-74,31706,American,Ralston Crawford,Artist,,,1,3,0,5,2,3,3,5,,,,,,2,1,0,1,0,0,1,,,,,5,0,0,2,,,,,,,,1,,,,,,,,,1,6,0,5,5,3,4,5,,,4,0,0,13,2,3,9,14,,
284515,P1978.20,Photographs,American,Modern and Contemporary Art,New York,1978,2028439,"North America, United States, New York",43,-75,28734,American,Aaron Siskind,Artist,,,,,,1,4,1,1,,,,,,,1,1,0,1,0,0,1,,,,,5,,,,,,,,,,,1,,,,,,,,,,,,1,6,1,1,,,,5,0,0,13,7,10,5,,,
340036,2012.119,Sculpture,British,Modern and Contemporary Art,Untitled (Double Rubber Plinth),2012,0,,0,0,57534,British,Rachel Whiteread,Artist,,,,,12,5,14,4,27,67,20,,,,,30,1,1,2,2,1,,,,,,,,,,,,,,,,,,,,,,1,,,,,,13,5,15,4,30,73,21,,,,,10,0,0,0,1,0,1
337163,2014.17,Sculpture,American,Modern and Contemporary Art,Birthday,2014,0,,0,0,28750,American,David Smith,Artist,,,,,,,16,20,6,9,18,,,2,11,0,3,14,1,,,,,,,,2,,,,,,,,,,,1,,,,,,,,,,,,,17,25,10,9,22,,,6,2,7,6,17,,,,
317862,2006.236,Sculpture,German,Modern and Contemporary Art,Shutter (c),2006,0,,0,0,29090,German,Rosemarie Trockel,Artist,,32,130,73,131,98,98,159,127,47,39,,,1,1,1,1,0,3,4,,,,,,,,,,,,4,3,,,,1,,,,,,,,,36,269,188,251,106,115,171,138,53,44,,1,0,3,0,1,9,0,0,11,7
337096,2010.573,Sculpture,Colombian,Modern and Contemporary Art,Untitled,2010,2037657,"South America, Colombia",4,-72,56016,Colombian,Doris Salcedo,Artist,,,,93,113,45,36,107,121,20,21,,,17,2,1,2,1,2,1,,,,,,,,,,,,5,3,,,,1,,,,,,,,,,,222,229,59,39,118,137,22,25,,,11,7,0,2,10,0,4,11,6
191571,M24190,Prints,American,Modern and Contemporary Art,Various Small Fires and Milk,1999,0,,0,0,28417,American,Edward Ruscha,Artist,,1,1,2,0,3,0,11,3,4,6,,,,3,3,2,0,0,0,0,1,,,,1,2,0,0,1,0,1,,,,,,,,,,,,,,1,1,4,0,3,0,11,4,4,6,,6,0,8,16,10,1,2,0,9,2
219196,1995.257.A-D,Multiples,German,Modern and Contemporary Art,Object to Smear and Turn,1995,0,,0,0,27839,German,Joseph Beuys,Artist,,,,1,8,7,35,11,6,2,4,,,,,5,1,3,2,,,,,,,,2,0,0,1,,,,,,,,,,,,,,,,,,2,12,10,37,12,7,3,5,,6,0,0,4,5,7,4,8,,
7435,M26446.14,Multiples,American,Modern and Contemporary Art,"Fluxus cc Valise e TRanglE No. 3 March, 1964",2005,0,,0,0,33967,American,George Maciunas,Artist,,,,,4,4,7,24,7,3,10,,1,0,1,2,2,0,2,0,0,3,,,,,,,,,,2,2,,,,,,,,,,,,,,,,9,6,8,29,7,3,12,,1,0,0,0,0,0,2,0,0,2
283694,52.1995,Photographs,American,Modern and Contemporary Art,Nine Swimming Pools and a Broken Glass,,2028213,"North America, United States",38,-98,28417,American,Edward Ruscha,Artist,,1,4,3,0,7,1,15,5,6,2,,,,1,4,2,0,0,1,,,,,,,5,,,,,,,,,,,,,,,,,,,1,5,6,0,7,4,16,5,6,2,,3,0,0,19,6,5,4,,,
285956,P1972.1,Photographs,American,Modern and Contemporary Art,"LAURO MORALES, a mexican dwarf, in his hotel room in N.Y.C. 1970",1972,2028444,"North America, United States, New York, New York City",40.7,-74,34517,American,Diane Arbus,Artist,,16,23,11,14,60,104,75,79,52,7,,,,,1,3,2,1,0,0,1,,,,,2,0,0,2,2,0,3,,,,,,,,,,,,,16,43,22,19,65,119,91,89,63,8,,4,0,9,6,3,8,8,6,0,5
191184,M24199,Prints,American,Modern and Contemporary Art,Babycakes with Weights,1999,0,,0,0,28417,American,Edward Ruscha,Artist,,1,0,0,2,5,6,26,7,17,12,,,,4,4,2,0,0,0,0,1,,,,,2,,,,,,,,,,,,,,,,,,,1,0,0,2,5,6,26,8,18,14,,3,0,0,18,9,4,4,,,
201696,1995.288.9.A-B,Multiples,German,Modern and Contemporary Art,American Hare Sugar,1995,0,,0,0,27839,German,Joseph Beuys,Artist,,,,1,2,10,9,11,7,12,1,,,,2,3,1,2,2,,,,,,,1,5,0,0,0,0,2,,,,,,,,,,,,,,,,4,3,10,11,12,8,12,1,,8,0,2,12,3,0,0,0,14,
218817,1995.486,Multiples,German,Modern and Contemporary Art,New York Subway Poster,1995,0,,0,0,27839,German,Joseph Beuys,Artist,,,1,0,1,4,4,1,0,5,1,,,,,4,1,1,2,,,,,,,,2,0,0,0,0,2,,,,,,,,,,,,,,,2,0,1,4,4,1,0,7,1,,6,0,0,8,8,10,0,0,9,
219036,1995.227.A-B,Multiples,German,Modern and Contemporary Art,Sulphur-Covered Zinc Box (Plugged Corner),1995,0,,0,0,27839,German,Joseph Beuys,Artist,,,,1,6,16,12,12,5,8,3,,,,,13,3,5,2,,,,,,,,7,0,0,0,0,1,,,,,,,,,,,,,,,,2,10,19,13,14,7,8,3,,6,0,1,14,4,,,,,
336824,2010.449.31,Prints,American,Modern and Contemporary Art,Canto XXXI,2010,0,,0,0,28223,American,Robert Rauschenberg,Artist,,,,,,1,1,10,3,8,5,,,3,0,1,3,,,,,,,,,,,,,,,1,,,,,,1,,,,,,,,,,,,1,1,10,4,8,7,,,1,0,0,0,0,1,2,4,2
340159,2012.152,Photographs,Cuban,Modern and Contemporary Art,Che during the sugar harvest,2012,0,,0,0,57642,Cuban,Ernesto Fernández,Artist,,,,,1,0,2,0,0,1,3,,,,,38,0,0,2,0,0,1,,,,,,,,,,,1,,,,,,,,,,,,,,,,1,0,2,0,0,1,3,,,,,8,1,6,7,0,0,11
340161,2012.154,Photographs,Cuban,Modern and Contemporary Art,"Giron Beach, April 18, 1961",2012,0,,0,0,57642,Cuban,Ernesto Fernández,Artist,,,,,,1,1,1,0,0,3,,,,,29,0,0,2,0,0,1,,,,,,,,,,,1,,,,,,,,,,,,,,,,,1,1,1,0,0,3,,,,,8,1,6,7,0,0,11
336292,2010.1,Photographs,American,Modern and Contemporary Art,1957-2009 Interior,2010,0,,0,0,30636,American,Lorna Simpson,Artist,,,76,30,20,7,41,22,73,115,60,,,19,2,3,0,0,2,,,,,,,3,0,0,0,1,0,2,1,,,,,,,,,,,,,,132,68,40,7,48,24,85,136,68,,,21,8,10,0,0,2,0,23,4
219423,1995.215,Multiples,German,Modern and Contemporary Art,Intuition,1995,0,,0,0,27839,German,Joseph Beuys,Artist,,,1,5,5,20,8,3,7,2,7,,,,,14,1,2,2,,,,,,,,3,0,0,1,,,,,,,,,,,,,,,,,2,10,7,20,8,3,7,2,10,,6,0,0,8,4,7,5,6,,
219429,1995.233.A-B,Multiples,German,Modern and Contemporary Art,Mönchengladbach Concert,1995,0,,0,0,27839,German,Joseph Beuys,Artist,,1,1,0,5,3,12,7,3,4,1,,,,,7,1,4,2,,,,,,,,3,0,0,2,1,,,,,,,,,,,1,,,,1,2,0,7,3,13,9,3,4,1,,5,0,0,8,4,7,9,5,1,
226966,1991.175,Sculpture,American,Modern and Contemporary Art,Corner Wall #6,1991,2028213,"North America, United States",38,-98,27176,American,Sol LeWitt,Artist,,,1,1,3,6,9,66,49,39,7,,1,0,0,3,2,0,4,,,,,,,,,,,,,1,,,,,1,,,,,,,,,,1,2,6,6,9,74,56,41,9,,4,0,0,0,0,8,0,0,6,
336819,2010.449.26,Prints,American,Modern and Contemporary Art,Canto XXVI,2010,0,,0,0,28223,American,Robert Rauschenberg,Artist,,,,,,1,0,15,4,1,,,,3,0,1,3,,,,,,,,,,,,,,,,1,,,,,1,,,,,,,,,,,,1,0,16,5,1,,,,1,0,0,0,0,1,1,0,5
54443,2003.10.2,Drawings,American,Modern and Contemporary Art,Drawing for Cloth Work #2,2003,2028213,"North America, United States",38,-98,33266,American,Richard Tuttle,Artist,,1,0,0,2,1,2,4,1,,,,1,0,1,1,2,3,,,,,,,,,,,,,1,,,,,,,1,,,,,,,,1,0,0,3,1,2,6,1,,,,3,0,0,3,0,6,0,9,1,
94310,BR67.21.B,Sculpture,German,Modern and Contemporary Art,Gliding Glide,1967,0,,0,0,29128,German,Günther Uecker,Artist,,3,0,2,2,1,7,10,14,3,1,,,,,5,2,0,1,,,,,,,,2,,,,,,,,,,,,1,,,,,,,3,0,4,3,1,8,10,16,3,2,,3,0,0,3,10,10,0,0,3,
222583,BR67.21.A,Sculpture,German,Modern and Contemporary Art,Gliding Glide,1967,0,,0,0,29128,German,Günther Uecker,Artist,,2,5,6,9,3,7,22,15,4,1,,,,2,4,1,0,1,,,,,,,,2,,,,,,,,,,,1,,,,,,,,2,7,12,20,3,7,23,18,4,1,,3,0,0,3,6,12,0,0,1,
7426,M26446.33,Multiples,American,Modern and Contemporary Art,Compositions,2005,0,,0,0,35007,American,La Monte Young,Artist,,3,3,4,15,3,1,9,5,11,1,,,,1,2,2,0,2,0,0,1,,,,,,,,1,0,2,2,,,,,,,,,,,,,3,5,8,30,3,1,10,5,12,1,,1,2,7,3,0,0,2,,,
286129,P1972.7,Photographs,American,Modern and Contemporary Art,"Xmas tree in a livingroom, Levittown, N.Y. 1962.",1972,2040106,"North America, United States, New York, Levittown",0,0,34517,American,Diane Arbus,Artist,,6,7,6,7,2,6,27,13,10,5,,,,,1,3,2,1,0,0,1,,,,,2,0,0,2,2,0,2,,,,,,,,,,,,,6,11,12,13,2,6,36,14,10,5,,6,3,11,21,5,8,6,6,0,3
312562,2006.9.1-16,Photographs,American,Modern and Contemporary Art,Dispersed Perspective (One-Point) R.W.B.,2006,0,,0,0,28497,American,Mel Bochner,Artist,,,3,0,3,2,5,8,41,12,3,,1,3,0,2,0,0,2,,,,,,,,,,,,2,,,,,,,,,,,,,,,,4,0,4,2,5,9,47,14,3,,1,0,0,0,0,0,0,1,1,
340160,2012.153,Photographs,Cuban,Modern and Contemporary Art,Fidel during the sugar harvest,2012,0,,0,0,57642,Cuban,Ernesto Fernández,Artist,,,,,,,,1,0,0,,,,,,30,0,0,2,1,0,1,,,,,,,,1,3,1,1,,,,,,,,,,,,,,,,,,,1,0,0,,,,,,8,1,6,12,7,4,11
340162,2012.155,Photographs,Cuban,Modern and Contemporary Art,"Fight against the bandits, Escambray",2012,0,,0,0,57642,Cuban,Ernesto Fernández,Artist,,,,,,,,,,,1,,,,,30,0,0,2,0,0,1,,,,,,,,,,,1,,,,,,,,,,,,,,,,,,,,,,1,,,,,8,1,5,7,0,0,11
349671,2014.18,Paintings,American,Modern and Contemporary Art,Black Light Series #8: Red White Black Nigger,2014,0,,0,0,18532,American,Faith Ringgold,Artist,,,,,,,34,78,125,205,188,,,,,,8,18,1,,,,,,,,,,,,,,,,,,,,,,,,,,,,,,,,38,90,143,216,207,,,,,,5,11,0,0,1,
30030,M26488,Prints,American,Modern and Contemporary Art,Female Underpants,2005,2028213,"North America, United States",38,-98,35031,American,Robert Watts,Artist,,1,2,1,4,3,1,2,2,0,4,,,,1,3,2,0,1,0,0,1,,,,,,,,,,,2,,,,,,,,,,,,,2,4,2,4,3,1,2,2,0,5,,7,3,9,8,3,0,0,0,0,11
29862,M26489,Prints,American,Modern and Contemporary Art,Male Underpants,2005,2028213,"North America, United States",38,-98,35031,American,Robert Watts,Artist,,2,2,1,8,8,4,1,3,2,12,,,,1,3,2,0,1,0,0,1,,,,,,,,,,,2,,,,,,,,,,,,,2,4,2,11,8,6,1,3,2,12,,7,3,9,8,3,0,0,0,0,11
219049,1995.279,Multiples,German,Modern and Contemporary Art,Earth Telephone,1995,0,,0,0,27839,German,Joseph Beuys,Artist,,,,2,0,3,6,2,4,4,4,,,,,4,1,1,2,,,,,,,,1,0,0,1,,,,,,,,,,,,,,,,,,4,0,3,6,2,4,4,5,,7,0,0,4,2,1,5,3,1,
219177,1995.271.A-B,Multiples,German,Modern and Contemporary Art,Rose for Direct Democracy,1995,0,,0,0,27839,German,Joseph Beuys,Artist,,2,0,0,3,11,10,12,2,2,19,,,,,5,1,1,2,,,,,,,,2,0,0,0,0,0,2,,,,,,,,,,,,,2,0,0,4,11,14,12,2,2,21,,6,0,0,6,3,0,0,0,0,13
219180,1995.398,Multiples,German,Modern and Contemporary Art,"""ARTnews"" Cover",1995,0,,0,0,27839,German,Joseph Beuys,Artist,,,,,,1,4,2,0,0,2,,,,,4,1,1,2,,,,,,,1,2,0,0,0,0,0,2,,,,,,,,,,,,,,,,,1,4,2,0,0,2,,5,1,3,13,8,2,1,0,1,11
7460,M26446.20,Multiples,American,Modern and Contemporary Art,Zen For Film,2005,0,,0,0,34212,American,Nam June Paik,Artist,,3,7,6,6,14,3,25,3,6,24,,,,1,2,2,1,2,0,0,1,,,,,,,,,,4,3,,,,,,,,,1,,,,3,14,12,14,15,3,28,3,7,31,,1,0,0,0,0,0,2,0,0,2
7470,M26446.24,Multiples,American,Modern and Contemporary Art,Water Music,2005,0,,0,0,25596,Japanese,Mieko (Chieko) Shiomi,Artist,,3,2,0,4,12,2,4,5,5,10,,,1,1,2,1,0,2,0,0,1,,,,,1,0,0,0,0,1,,,,,,,,,,1,,,,7,4,0,4,15,2,4,5,6,11,,1,0,5,3,0,0,2,,,
286038,P1972.3,Photographs,American,Modern and Contemporary Art,A young man in curlers dressing for an annual drag ball N.Y.C. 1966,1972,2028444,"North America, United States, New York, New York City",40.7,-74,34517,American,Diane Arbus,Artist,,9,8,9,15,13,17,48,17,20,5,,,,,1,1,2,1,0,0,1,,,,,2,0,0,2,2,0,4,,,,,,,,,,,,,9,14,20,18,13,18,57,19,25,5,,4,0,9,6,6,8,8,6,0,8
336163,2010.3,Sculpture,Argentinian,Modern and Contemporary Art,Analogia I,2010,0,,0,0,55273,Argentinian,Victor Grippo,Artist,,,19,54,13,7,42,162,167,135,118,,8,11,1,4,1,1,2,0,0,2,,,,,,,,,,,,,,,1,,,,,,,,,,38,114,25,11,48,175,201,146,137,,5,7,4,0,7,8,,,,
340163,2012.156,Photographs,Cuban,Modern and Contemporary Art,Youth Brigade on the ocean,2012,0,,0,0,57642,Cuban,Ernesto Fernández,Artist,,,,,,1,1,2,0,0,8,,,,,28,0,0,2,0,0,1,,,,,,,,,,,1,,,,,,,,,,,,,,,,,1,1,2,0,0,12,,,,,8,1,6,7,0,0,11
222565,BR67.2,Paintings,American,Modern and Contemporary Art,Four Greens,1967,0,,0,0,28927,American,Josef Albers,Artist,,3,2,8,7,5,10,27,19,42,12,,,,1,1,1,0,1,,,,,,,,,,,,,,,,,,2,0,0,0,1,,,,,3,3,18,9,5,10,30,23,53,14,,5,0,0,2,4,8,,,,
173824,2001.19,Drawings,American,Modern and Contemporary Art,"Untitled (Work Book Drawing, Page 11)",2001,0,,0,0,27376,American,Brice Marden,Artist,,1,0,0,0,2,1,5,3,,,,,,1,1,2,0,3,,,,,,,,,,,1,,,,,,,,,,,,,,,,1,0,0,0,4,2,6,3,,,,5,2,0,0,0,6,4,,,
219149,1995.315,Multiples,German,Modern and Contemporary Art,Telephone T--R [mirrored R],1995,0,,0,0,27839,German,Joseph Beuys,Artist,,2,1,0,4,4,8,3,2,7,,,,,,6,3,2,2,,,,,,,1,5,0,0,3,,,,,,,,,,,,,,,,3,2,0,4,4,8,3,2,7,,,8,4,2,4,5,11,9,6,1,
167821,2001.2,Drawings,American,Modern and Contemporary Art,"Study for ""Third Avenue Elevated""",2001,0,,0,0,31706,American,Ralston Crawford,Artist,,2,0,4,1,6,4,2,3,0,1,,,1,1,2,1,0,2,,,,,,,,4,0,0,1,,,,,,,,1,,,,,,,,2,0,8,2,6,15,2,3,0,1,,4,4,3,11,2,13,4,14,,
228067,1965.28,Paintings,American,Modern and Contemporary Art,Blue Veil,1965,2028213,"North America, United States",38,-98,27276,American,Morris Louis,Artist,,28,55,37,83,133,140,184,147,133,120,,2,0,1,3,3,1,1,0,0,1,,,,1,0,0,0,1,,,,,,,2,,,,,,,,,32,91,73,125,149,166,216,166,151,130,,4,0,0,4,0,0,6,,,
174159,2001.33,Drawings,American,Modern and Contemporary Art,Sketch of a Beach Cabana V,2001,0,,0,0,26859,American,Ellsworth Kelly,Artist,,,5,2,3,8,1,6,0,2,,,,1,0,1,2,0,2,,,,,,,3,0,0,0,0,4,,,,,,,,,,,,,,,,9,4,4,9,1,7,0,2,,,5,2,4,0,0,6,2,8,9,
95473,2001.201,Drawings,American,Modern and Contemporary Art,"Studies for ""Third Avenue Elevated""",2001,0,,0,0,31706,American,Ralston Crawford,Artist,,,2,4,0,1,4,5,1,0,2,,,1,0,3,1,0,2,,,,,,,,4,0,0,1,,,,,,,,1,,,,,,,,,4,8,0,1,6,5,1,0,2,,4,3,3,11,2,12,4,14,,
228408,1964.35,Paintings,American,Modern and Contemporary Art,Hover,1964,2028213,"North America, United States",38,-98,27859,American,Kenneth Noland,Artist,,1,9,10,16,23,24,65,31,38,9,,1,0,1,2,2,2,1,0,0,1,,,,,,,,,,,,,,,2,,,,,,,,,2,14,20,25,29,27,73,32,41,10,,1,2,0,2,0,6,1,0,1,
258884,M21732,Prints,American,Modern and Contemporary Art,Landscape 5,1991,0,,0,0,27192,American,Roy Lichtenstein,Artist,,1,3,1,3,3,14,30,15,2,14,,,,2,6,6,7,2,0,1,1,,,,1,7,0,0,1,1,3,4,,,,,1,,,,,,,,1,5,2,3,4,16,31,17,2,15,,4,2,4,27,6,9,8,14,8,9
349672,2014.19,Prints,American,Modern and Contemporary Art,Judson 3,2014,0,,0,0,18532,American,Faith Ringgold,Artist,,,,,,,13,34,20,38,17,,,,,,7,24,2,2,,,,,,,,,,2,1,1,,,,,,,,,,,,,,,,,,,14,37,21,40,19,,,,,,3,16,9,12,6,
215327,1995.552.A-C,Multiples,German,Modern and Contemporary Art,Capri Battery,1995,0,,0,0,27839,German,Joseph Beuys,Artist,,,,2,4,28,52,34,20,9,18,,,,,5,1,1,2,,,,,,,,3,0,0,0,0,0,1,,,,,,,,,,,,,,,4,7,29,65,43,23,12,32,,5,0,1,,,,,,,
220875,1992.243,Drawings,German,Modern and Contemporary Art,Space Time Body,1992,0,,0,0,29293,German,Franz Erhard Walther,Artist,,,1,2,3,3,2,0,1,1,5,,,,,1,3,0,2,0,0,1,,,,,,,,,,,1,,,,,,,,,,,,,,2,6,5,6,2,0,1,1,5,,4,0,0,8,2,8,0,0,0,9
260973,M22397,Prints,American,Modern and Contemporary Art,Untitled,1993,0,,0,0,29318,American,Andy Warhol,Artist,,2,7,2,4,4,9,10,3,2,,,,,1,10,3,0,1,0,0,1,,,,,3,0,0,0,1,2,,,,,,1,,,,,,,,2,13,4,4,4,11,11,3,2,,,9,0,0,11,0,6,2,0,5,
167278,P2001.17,Photographs,American,Modern and Contemporary Art,Support for the Third Avenue Elevated,2001,2028276,"North America, United States, New York State, New York City",40.7,-74,31706,American,Ralston Crawford,Artist,,2,1,3,0,4,2,5,1,,,,,,,1,1,,,,,,,,,,5,0,0,1,,,,,,,,1,,,,,,,,2,1,6,0,4,2,5,1,,,,3,0,3,13,2,7,5,14,,
197412,2001.32,Drawings,American,Modern and Contemporary Art,Sketch of a Beach Cabana IV (recto and verso),2001,0,,0,0,26859,American,Ellsworth Kelly,Artist,,,10,3,5,7,4,11,3,4,1,,,1,0,1,2,0,2,,,,,,,3,0,0,0,0,4,,,,,,,,,,,,,,,,18,8,6,9,4,11,6,4,1,,5,2,4,0,0,6,0,8,9,
223002,BR63.25,Sculpture,Swiss,Modern and Contemporary Art,Endless Surface in the Form of a Column,1963,0,,0,0,28036,Swiss,Max Bill,Artist,,8,14,10,2,5,6,72,54,62,41,,,,,3,2,0,1,,,,,,,,,,,,,,,,,,,1,0,0,1,,,,,8,23,28,4,6,8,86,64,70,48,,3,0,0,0,0,10,,,,
184823,2000.52,Drawings,American,Modern and Contemporary Art,Untitled,2000,0,,0,0,34208,American,Eva Hesse,Artist,,4,9,4,5,12,5,12,17,3,1,,,2,0,1,3,0,2,,,,,,,1,2,0,0,3,1,1,1,,,,,1,,,,,,,,5,14,8,9,15,7,16,18,4,1,,4,1,3,17,2,7,12,14,4,9
260974,M22398,Prints,American,Modern and Contemporary Art,Untitled,1993,0,,0,0,29318,American,Andy Warhol,Artist,,1,4,0,0,6,0,7,2,1,,,,,1,10,3,0,0,0,0,1,,,,,1,0,0,0,1,2,,,,,,1,,,,,,,,2,8,0,0,7,0,12,2,1,,,7,0,0,4,0,4,3,0,5,
309009,1973.99,Drawings,American,Modern and Contemporary Art,Untitled,1973,0,,0,0,28080,American,Howardena Pindell,Artist,,,5,4,0,0,1,3,2,6,8,,,,1,1,2,0,1,0,0,1,,,,,,,,,,8,3,,,,,,,,,,,,,,7,8,0,0,1,4,2,6,14,,4,0,0,0,0,6,0,0,27,14
228057,1965.32,Paintings,American,Modern and Contemporary Art,Four-Three-Eight (Orange Column),1965,2028213,"North America, United States",38,-98,27276,American,Morris Louis,Artist,,1,6,6,17,13,6,40,10,6,2,,2,0,0,4,1,1,1,0,0,1,,,,,,,,,,,,,,,,2,,,,,,,,1,10,12,34,14,9,50,11,6,3,,5,0,6,2,0,9,3,0,1,
258801,M21735,Prints,American,Modern and Contemporary Art,Landscape 8,1991,0,,0,0,27192,American,Roy Lichtenstein,Artist,,1,11,1,2,3,31,29,5,2,2,,,,1,6,6,5,4,0,1,1,,,,1,4,0,0,10,1,7,3,,,,,1,,,,,,,,1,22,2,3,3,40,30,5,2,2,,4,7,1,11,5,11,18,12,18,7
201847,1995.214.A-D,Multiples,German,Modern and Contemporary Art,Evervess II 1,1995,0,,0,0,27839,German,Joseph Beuys,Artist,,3,1,4,14,21,9,13,11,5,12,,,,,16,1,2,2,,,,,,,1,2,0,0,3,,,,,,,,1,,,,,,,,3,1,14,24,26,10,14,14,5,15,,6,0,2,4,5,12,13,6,,
219416,1995.222.A-B,Multiples,German,Modern and Contemporary Art,"Ja Ja Ja Ja Ja, Nee Nee Nee Nee Nee",1995,0,,0,0,27839,German,Joseph Beuys,Artist,,1,0,3,13,7,14,9,5,5,5,,,,,14,1,2,2,1,,,,,,,3,0,0,1,1,,,,,,,,,,,1,,,,1,0,6,23,10,15,9,5,7,5,,4,0,0,5,5,12,3,8,1,
286130,P1972.8,Photographs,American,Modern and Contemporary Art,Retired man and his wife at home in a nudist camp one morning in N.J. 1963. On the television set are framed photographs of each other.,1972,2028570,"North America, United States, New Jersey",40,-75,34517,American,Diane Arbus,Artist,,28,30,18,45,157,233,86,27,26,27,,,,1,1,3,1,1,0,0,1,,,,1,2,0,0,1,2,0,5,,,,,,,,,,,,,28,55,48,52,175,243,99,33,27,32,,4,8,16,12,3,8,4,6,0,15
212487,1979.409,Sculpture,American,Modern and Contemporary Art,Bird,1979,2028213,"North America, United States",38,-98,28750,American,David Smith,Artist,,5,7,2,6,6,10,24,35,8,9,,1,0,1,3,4,1,2,0,0,2,,,,,2,,,,,,,,,,,1,,,,,,,,6,11,4,6,6,10,24,42,8,9,,3,0,0,7,7,16,,,,
302274,P1972.216,Photographs,American,Modern and Contemporary Art,New York 7,1972,2028439,"North America, United States, New York",43,-75,28734,American,Aaron Siskind,Artist,,12,25,7,17,31,53,157,73,32,19,,,,,1,1,0,1,0,0,1,,,,,4,0,0,0,1,,,,,,,,1,,,,,,,13,40,16,33,34,58,183,78,35,20,,7,6,3,11,6,10,5,4,3,
219037,1995.232.A-B,Multiples,German,Modern and Contemporary Art,Felt Suit,1995,0,,0,0,27839,German,Joseph Beuys,Artist,,,1,12,0,1,3,4,1,,,,,,1,7,1,1,2,,,,,,,,2,0,0,1,1,,,,,,,,1,,,,,,,,2,24,0,1,3,4,1,,,,5,4,12,5,2,4,5,5,,
219082,1995.254,Multiples,German,Modern and Contemporary Art,La rivoluzione siamo Noi,1995,0,,0,0,27839,German,Joseph Beuys,Artist,,3,0,2,6,11,10,5,2,3,15,,1,0,0,9,1,1,2,,,,,,,,3,0,0,0,2,0,1,,,,,,,,,1,,,,4,0,4,9,12,10,5,2,3,16,,5,0,0,4,2,0,1,0,0,12
226483,1995.42,Paintings,American,Modern and Contemporary Art,Untitled #4,1995,2028213,"North America, United States",38,-98,27402,American,Agnes Martin,Artist,,14,18,12,23,14,21,54,53,34,6,,2,0,0,5,2,0,2,0,1,1,,,,,,,,,,,,,,,2,,,,,,,,,18,35,28,42,14,28,65,65,38,9,,4,4,0,11,0,8,2,0,2,
285957,P1972.2,Photographs,American,Modern and Contemporary Art,"identical twins, Cathleen (l.) and Colleen, members of a twin club in New Jersey. 1966",1972,2028570,"North America, United States, New Jersey",40,-75,34517,American,Diane Arbus,Artist,,41,96,57,49,90,151,230,67,59,74,,,,,1,1,2,1,0,0,1,,,,1,2,0,0,5,4,1,7,,,,,,,,,,,,,50,153,119,82,97,172,278,73,65,82,,6,21,12,6,6,8,12,12,5,12
186819,2000.24,Paintings,American,Modern and Contemporary Art,"Highland, Franklin, Yucca",2000,0,,0,0,28417,American,Edward Ruscha,Artist,,36,140,136,76,25,54,139,62,62,53,,3,0,2,6,2,0,2,,,,,,,,2,,,,,,,,,,2,,,,,,,,,39,288,299,162,25,64,160,68,68,62,,3,0,0,2,0,5,0,0,3,2
218164,1995.22,Multiples,German,Modern and Contemporary Art,Sled,1995,0,,0,0,27839,German,Joseph Beuys,Artist,,2,2,6,29,29,37,17,8,10,17,,,,,16,1,3,3,,,,,,,2,5,,,,,,,,,,,1,,,,,,,,2,4,12,42,35,39,24,9,10,21,,,1,0,0,0,1,2,,,
285730,P1972.4,Photographs,American,Modern and Contemporary Art,"patriotic boy with straw hat, buttons, and flag, waiting to march in a pro-war parade, NYC 1967",1972,2028276,"North America, United States, New York State, New York City",40.7,-74,34517,American,Diane Arbus,Artist,,4,2,3,7,7,15,37,25,19,9,,,,,1,1,2,1,0,0,1,,,,,3,0,0,1,2,1,5,,,,,,,,,,,,,4,4,10,8,9,17,43,28,20,9,,7,3,9,10,6,8,4,6,3,11
286055,P1972.9,Photographs,American,Modern and Contemporary Art,A young family in Brooklyn going for a Sunday outing. Their baby is named Dawn. Their son is retarded. 1966,1972,2036963,"North America, United States, New York, Brooklyn",40.683,-73.966,34517,American,Diane Arbus,Artist,,21,23,14,8,8,32,26,9,17,20,,,,,1,1,1,1,0,0,1,,,,,2,0,0,1,2,0,3,,,,,,,,,,,,,21,39,30,14,8,36,43,9,20,21,,7,6,9,6,6,8,4,6,0,6
285958,P1972.6,Photographs,American,Modern and Contemporary Art,"This is Eddie Carmel, a jewish giant, with his parents in the living room of their home in the Bronx, N.Y. 1970",1972,2028444,"North America, United States, New York, New York City",40.7,-74,34517,American,Diane Arbus,Artist,,11,11,5,10,25,40,49,15,33,25,,,,,1,3,2,1,0,0,1,,,,,2,0,0,3,2,0,4,,,,,,,,,,,,,13,20,10,14,30,43,57,18,34,28,,1,7,9,6,5,8,10,6,0,8
177950,1995.28,Multiples,German,Modern and Contemporary Art,The Silence,1995,0,,0,0,27839,German,Joseph Beuys,Artist,,2,1,2,11,19,8,2,2,4,,,,,,5,1,1,2,,,,,,,,2,0,0,1,1,1,,,,,,,,,,,,,,2,2,4,20,23,10,2,2,5,,,,1,0,0,0,0,0,1,1,
93426,2003.49,Drawings,American,Modern and Contemporary Art,Untitled,2003,0,,0,0,34208,American,Eva Hesse,Artist,,6,10,6,4,12,8,32,14,9,11,,,1,0,1,1,0,2,,,,,,,2,3,0,0,3,1,1,1,,,,,1,,,,,,,,6,17,12,5,12,8,40,15,9,11,,4,16,26,17,19,9,14,13,10,4
310851,1995.231.A-B,Multiples,German,Modern and Contemporary Art,Felt Suit,1995,0,,0,0,27839,German,Joseph Beuys,Artist,,24,28,16,37,90,96,172,81,35,50,,,,1,8,1,1,2,,,,,,,,8,0,0,11,0,0,1,,,,,,1,,,,,,,28,51,32,52,97,112,195,91,38,54,,4,1,0,15,4,4,15,0,1,2
212486,1979.408,Sculpture,American,Modern and Contemporary Art,Books and Apple,1979,2028213,"North America, United States",38,-98,28750,American,David Smith,Artist,,9,7,7,8,20,25,38,41,36,19,,1,0,1,3,2,1,1,0,0,1,,,,,2,,,,,,,,,,,1,,,,,,,,10,13,16,11,21,26,43,46,38,21,,4,0,8,10,10,14,,,,
223024,BR63.28,Paintings,American,Modern and Contemporary Art,Homage to the Square: Against Deep Blue,1963,0,,0,0,28927,American,Josef Albers,Artist,,22,15,48,47,69,64,145,132,132,106,,,,1,1,1,0,1,,,,,,,,1,,,,,,,,,,2,0,0,0,2,,,,,29,30,108,75,79,77,176,153,156,133,,6,12,5,0,1,8,,,,
191182,M24193,Prints,American,Modern and Contemporary Art,Thirty-Four Parking Lots,1999,0,,0,0,28417,American,Edward Ruscha,Artist,,,6,1,0,0,2,19,2,3,2,,,,2,4,2,1,0,0,0,1,,,,,6,,,,,,,,,,,1,,,,,,,,,8,2,0,0,2,20,2,3,2,,5,9,0,21,9,9,7,0,3,2